{"type":"FeatureCollection","features":[{"type":"Feature","id":"downtown","properties":{"id":"downtown","label":"Downtown","category":"government"},"geometry":{"type":"Polygon","coordinates":[[[-84.509822,38.050799],[-84.509802,38.050836],[-84.509642,38.051101],[-84.50943,38.051336],[-84.509207,38.051553],[-84.508783,38.051879],[-84.508366,38.052161],[-84.508217,38.052263],[-84.508062,38.052381],[-84.507709,38.052662],[-84.507186,38.053092],[-84.506716,38.053483],[-84.505975,38.054098],[-84.505831,38.054206],[-84.505732,38.054288],[-84.505667,38.054344],[-84.505562,38.054439],[-84.505435,38.05456],[-84.505269,38.05473],[-84.505116,38.054888],[-84.504484,38.055523],[-84.50435,38.055647],[-84.5042,38.055767],[-84.504024,38.055894],[-84.503763,38.056076],[-84.503339,38.05638],[-84.503181,38.056492],[-84.502933,38.056667],[-84.502443,38.057025],[-84.502301,38.057142],[-84.5022,38.057245],[-84.502136,38.057318],[-84.502078,38.057393],[-84.502049,38.057436],[-84.50193,38.057639],[-84.501832,38.057847],[-84.501661,38.058265],[-84.501613,38.058393],[-84.501554,38.058539],[-84.501478,38.058738],[-84.501444,38.058827],[-84.501283,38.059253],[-84.50125,38.059349],[-84.501142,38.059664],[-84.501082,38.059869],[-84.501015,38.060086],[-84.50098,38.060207],[-84.500947,38.06032],[-84.500866,38.060577],[-84.500761,38.060911],[-84.500644,38.061287],[-84.500595,38.061441],[-84.500469,38.061842],[-84.500431,38.061963],[-84.500414,38.062014],[-84.500396,38.062065],[-84.50017,38.062738],[-84.500004,38.063186],[-84.499589,38.064285],[-84.499422,38.064274],[-84.499294,38.064248],[-84.497967,38.063771],[-84.49744,38.06358],[-84.496379,38.063186],[-84.495347,38.062804],[-84.495167,38.062734],[-84.494855,38.062612],[-84.494505,38.062561],[-84.494366,38.062541],[-84.494309,38.062534],[-84.494265,38.06253],[-84.494159,38.062523],[-84.494056,38.06252],[-84.494046,38.06252],[-84.493976,38.06252],[-84.49387,38.062525],[-84.493768,38.062533],[-84.493516,38.062563],[-84.493387,38.062583],[-84.493361,38.062589],[-84.492737,38.062681],[-84.492569,38.062707],[-84.491388,38.062889],[-84.491001,38.062949],[-84.490113,38.063086],[-84.489602,38.063165],[-84.488615,38.06331],[-84.488439,38.063321],[-84.488266,38.063321],[-84.488094,38.063312],[-84.487919,38.063292],[-84.487679,38.063207],[-84.487414,38.063098],[-84.487205,38.062992],[-84.487077,38.062915],[-84.486968,38.062837],[-84.486781,38.062678],[-84.486583,38.062501],[-84.486414,38.062345],[-84.486264,38.062197],[-84.485937,38.061865],[-84.485734,38.061698],[-84.48543,38.061491],[-84.485404,38.061467],[-84.48522,38.061296],[-84.485178,38.061251],[-84.485132,38.061197],[-84.48506,38.061098],[-84.485031,38.061047],[-84.48501,38.06101],[-84.484932,38.060811],[-84.484894,38.060691],[-84.484843,38.060564],[-84.48479,38.060411],[-84.484728,38.060258],[-84.484705,38.060222],[-84.484613,38.060078],[-84.484587,38.060047],[-84.484501,38.059942],[-84.484497,38.059938],[-84.484436,38.059881],[-84.484328,38.059781],[-84.484244,38.059703],[-84.484163,38.059632],[-84.484012,38.059487],[-84.483861,38.059346],[-84.483731,38.059225],[-84.483506,38.059016],[-84.483411,38.058934],[-84.483211,38.058766],[-84.482857,38.058464],[-84.482659,38.05828],[-84.482364,38.058002],[-84.482241,38.057895],[-84.481598,38.057338],[-84.481546,38.057288],[-84.481633,38.057226],[-84.481663,38.057206],[-84.481764,38.057138],[-84.481968,38.057],[-84.482106,38.056902],[-84.48217,38.056857],[-84.482529,38.056611],[-84.4829,38.056352],[-84.482941,38.056324],[-84.483237,38.056112],[-84.483563,38.05588],[-84.483886,38.055645],[-84.483915,38.055625],[-84.484199,38.055416],[-84.484256,38.055376],[-84.484313,38.055336],[-84.484432,38.055253],[-84.484742,38.055037],[-84.48482,38.054983],[-84.484872,38.054946],[-84.484925,38.054909],[-84.485484,38.054515],[-84.486153,38.054048],[-84.486323,38.053929],[-84.486381,38.053888],[-84.486435,38.053851],[-84.486518,38.053791],[-84.486771,38.053615],[-84.487151,38.053349],[-84.487215,38.053304],[-84.487256,38.053276],[-84.487703,38.05296],[-84.4884,38.052472],[-84.488467,38.052425],[-84.48852,38.052387],[-84.489007,38.052048],[-84.490471,38.051011],[-84.490525,38.050973],[-84.490581,38.050928],[-84.490859,38.050728],[-84.491182,38.050497],[-84.491452,38.050304],[-84.491541,38.050244],[-84.491977,38.049928],[-84.492452,38.049595],[-84.492502,38.04956],[-84.492551,38.049526],[-84.492511,38.049489],[-84.49226,38.04926],[-84.491869,38.048902],[-84.491535,38.048598],[-84.490954,38.048067],[-84.490896,38.048021],[-84.490847,38.047977],[-84.49077,38.047909],[-84.490661,38.047811],[-84.490511,38.047678],[-84.490299,38.04749],[-84.490278,38.04747],[-84.489661,38.046912],[-84.489527,38.046792],[-84.489293,38.046582],[-84.489229,38.046524],[-84.489137,38.046437],[-84.489086,38.04639],[-84.488717,38.046059],[-84.48833,38.045712],[-84.488291,38.045677],[-84.488249,38.045639],[-84.488091,38.045499],[-84.487848,38.045283],[-84.487637,38.045108],[-84.487566,38.045075],[-84.487485,38.04504],[-84.487006,38.044883],[-84.486489,38.044721],[-84.485798,38.044497],[-84.485689,38.044462],[-84.485626,38.04444],[-84.485387,38.044373],[-84.485237,38.04432],[-84.485003,38.04424],[-84.484916,38.044203],[-84.484575,38.04402],[-84.484121,38.043765],[-84.484036,38.043717],[-84.483948,38.043667],[-84.483488,38.043409],[-84.483252,38.043277],[-84.482868,38.04306],[-84.482588,38.042901],[-84.482508,38.042857],[-84.482405,38.042807],[-84.481958,38.04259],[-84.481798,38.042518],[-84.481646,38.042439],[-84.482037,38.042408],[-84.482907,38.042288],[-84.48314,38.042255],[-84.48417,38.042127],[-84.484336,38.042107],[-84.48453,38.042083],[-84.485027,38.042035],[-84.485158,38.04202],[-84.486135,38.041893],[-84.487218,38.041748],[-84.487803,38.04166],[-84.48791,38.041641],[-84.487962,38.041632],[-84.488005,38.041624],[-84.488061,38.041614],[-84.488468,38.041541],[-84.488537,38.041531],[-84.488693,38.041502],[-84.488955,38.041453],[-84.48966,38.041329],[-84.490454,38.041226],[-84.490685,38.041187],[-84.490789,38.041163],[-84.490846,38.041144],[-84.490913,38.041119],[-84.490999,38.04107],[-84.491065,38.041026],[-84.491095,38.041007],[-84.491282,38.040926],[-84.491376,38.040894],[-84.491488,38.04087],[-84.491615,38.040865],[-84.491736,38.040874],[-84.491844,38.040893],[-84.491945,38.040923],[-84.492213,38.041037],[-84.492289,38.040982],[-84.492348,38.040939],[-84.492455,38.040861],[-84.492609,38.040749],[-84.492695,38.040687],[-84.492762,38.040638],[-84.492828,38.040591],[-84.492894,38.040544],[-84.492922,38.040525],[-84.493031,38.040447],[-84.493078,38.040414],[-84.493149,38.040379],[-84.493261,38.040341],[-84.49327,38.040339],[-84.493357,38.040321],[-84.493473,38.040296],[-84.493616,38.040267],[-84.494054,38.040175],[-84.49411,38.040163],[-84.494166,38.040325],[-84.494187,38.040384],[-84.494192,38.040399],[-84.494258,38.04059],[-84.494304,38.040723],[-84.494348,38.04085],[-84.494411,38.041034],[-84.494461,38.041178],[-84.494488,38.041256],[-84.494519,38.041311],[-84.494584,38.041393],[-84.494629,38.04145],[-84.494693,38.041502],[-84.494785,38.041576],[-84.494817,38.041601],[-84.494876,38.041654],[-84.494903,38.041678],[-84.495029,38.04179],[-84.495061,38.041818],[-84.495268,38.042003],[-84.495292,38.042025],[-84.495473,38.042186],[-84.495484,38.042196],[-84.495552,38.042257],[-84.495861,38.042535],[-84.496092,38.042743],[-84.496103,38.042753],[-84.496229,38.042865],[-84.496293,38.042923],[-84.496459,38.043071],[-84.496506,38.043113],[-84.496638,38.043227],[-84.496663,38.043248],[-84.496685,38.043267],[-84.496738,38.043316],[-84.496928,38.043489],[-84.497101,38.043647],[-84.49714,38.043683],[-84.497257,38.04379],[-84.497311,38.04384],[-84.497375,38.043896],[-84.497661,38.04415],[-84.49803,38.044477],[-84.498228,38.044652],[-84.49835,38.04476],[-84.498367,38.044776],[-84.498478,38.044874],[-84.498523,38.044916],[-84.498729,38.045108],[-84.498773,38.04515],[-84.498822,38.045193],[-84.499298,38.04561],[-84.49932,38.045629],[-84.499636,38.045906],[-84.49969,38.045952],[-84.499739,38.045996],[-84.50003,38.046261],[-84.500371,38.046572],[-84.500658,38.046834],[-84.500709,38.04688],[-84.500769,38.046932],[-84.500959,38.047097],[-84.50137,38.047453],[-84.501575,38.047631],[-84.501656,38.047701],[-84.501719,38.047656],[-84.501818,38.047585],[-84.501866,38.047551],[-84.502145,38.047353],[-84.502226,38.047295],[-84.502359,38.0472],[-84.50249,38.047107],[-84.502542,38.04707],[-84.502692,38.046963],[-84.502763,38.046911],[-84.503203,38.046598],[-84.503272,38.046549],[-84.50355,38.046352],[-84.503602,38.046314],[-84.503684,38.046256],[-84.503813,38.046165],[-84.50393,38.046081],[-84.504002,38.04603],[-84.504091,38.045967],[-84.504136,38.045935],[-84.504214,38.045881],[-84.504299,38.045821],[-84.504486,38.04569],[-84.50519,38.045197],[-84.505238,38.045161],[-84.505252,38.045111],[-84.505625,38.044862],[-84.506011,38.044604],[-84.50609,38.044551],[-84.506187,38.044487],[-84.506244,38.04444],[-84.506544,38.044222],[-84.506818,38.044038],[-84.506943,38.043954],[-84.507102,38.043849],[-84.507169,38.043807],[-84.507288,38.043739],[-84.507398,38.043794],[-84.507521,38.043855],[-84.507562,38.043885],[-84.507825,38.044133],[-84.508237,38.044525],[-84.508476,38.044801],[-84.50862,38.045006],[-84.508757,38.045231],[-84.508997,38.045723],[-84.509019,38.045773],[-84.509204,38.046199],[-84.509391,38.046614],[-84.509456,38.046743],[-84.509521,38.046892],[-84.509623,38.047107],[-84.509691,38.047247],[-84.509907,38.047716],[-84.51002,38.047999],[-84.510086,38.048271],[-84.510128,38.048541],[-84.510124,38.048784],[-84.510109,38.049176],[-84.510095,38.049553],[-84.510084,38.049824],[-84.510065,38.050087],[-84.509961,38.050464],[-84.509912,38.050629],[-84.509822,38.050799]]]}},{"type":"Feature","id":"northside","properties":{"id":"northside","label":"Northside","category":"residential"},"geometry":{"type":"Polygon","coordinates":[[[-84.499589,38.064285],[-84.499526,38.064434],[-84.499148,38.065334],[-84.498816,38.066197],[-84.498676,38.066537],[-84.498615,38.066689],[-84.498465,38.067046],[-84.498166,38.067766],[-84.497976,38.068202],[-84.497697,38.068842],[-84.497597,38.069071],[-84.497496,38.069317],[-84.497456,38.069409],[-84.497376,38.069602],[-84.497344,38.06968],[-84.497337,38.069697],[-84.497121,38.070215],[-84.49701,38.070489],[-84.496834,38.070858],[-84.496678,38.071281],[-84.496668,38.071308],[-84.496606,38.071451],[-84.496436,38.071848],[-84.496353,38.072041],[-84.496326,38.072105],[-84.496293,38.072182],[-84.495824,38.073307],[-84.495755,38.073469],[-84.495447,38.074224],[-84.495437,38.074248],[-84.495428,38.07427],[-84.495161,38.074912],[-84.495153,38.074932],[-84.495141,38.074958],[-84.49476,38.075843],[-84.494717,38.075795],[-84.494661,38.075713],[-84.494619,38.075617],[-84.49475,38.075336],[-84.494732,38.075262],[-84.494707,38.075206],[-84.494666,38.075164],[-84.494595,38.075097],[-84.494488,38.075046],[-84.494034,38.074865],[-84.492531,38.074255],[-84.491462,38.074078],[-84.489976,38.073849],[-84.487258,38.073446],[-84.487042,38.073414],[-84.485352,38.07317],[-84.484743,38.073086],[-84.484251,38.07301],[-84.484097,38.072986],[-84.482698,38.072772],[-84.48255,38.072747],[-84.482198,38.072688],[-84.482068,38.072666],[-84.481372,38.072547],[-84.481192,38.072509],[-84.481133,38.072497],[-84.480823,38.072438],[-84.480594,38.072384],[-84.480248,38.072295],[-84.479702,38.072143],[-84.479592,38.072114],[-84.479431,38.072058],[-84.479375,38.072038],[-84.47885,38.071851],[-84.478662,38.071784],[-84.478453,38.071703],[-84.478436,38.071697],[-84.478081,38.071552],[-84.478054,38.07154],[-84.47783,38.071437],[-84.477696,38.071375],[-84.477359,38.071207],[-84.476998,38.071026],[-84.476852,38.070954],[-84.476708,38.070864],[-84.476448,38.070702],[-84.476189,38.07054],[-84.476104,38.070487],[-84.476026,38.070439],[-84.475858,38.070334],[-84.475741,38.070252],[-84.475634,38.070176],[-84.475257,38.06991],[-84.475177,38.069854],[-84.475159,38.069838],[-84.47477,38.069504],[-84.474509,38.069279],[-84.47438,38.069168],[-84.473997,38.068836],[-84.473812,38.068676],[-84.473486,38.068393],[-84.47343,38.068348],[-84.473382,38.068303],[-84.473338,38.068264],[-84.473057,38.06802],[-84.472959,38.067935],[-84.472816,38.067811],[-84.472718,38.067727],[-84.472539,38.067566],[-84.472354,38.067409],[-84.472251,38.067305],[-84.472153,38.067216],[-84.47194,38.067023],[-84.471827,38.066921],[-84.470844,38.066033],[-84.470037,38.065303],[-84.469918,38.065189],[-84.469553,38.064839],[-84.46942,38.064711],[-84.469111,38.064416],[-84.469019,38.064327],[-84.468996,38.064304],[-84.468867,38.064175],[-84.468833,38.064141],[-84.468552,38.06386],[-84.468088,38.063396],[-84.467358,38.062665],[-84.467129,38.062435],[-84.466951,38.062257],[-84.466839,38.062146],[-84.466616,38.061923],[-84.466529,38.061836],[-84.466412,38.061719],[-84.466142,38.061449],[-84.465991,38.061298],[-84.4654,38.060707],[-84.465275,38.060582],[-84.465215,38.060522],[-84.465112,38.060419],[-84.464911,38.060219],[-84.464793,38.060101],[-84.464712,38.060016],[-84.46406,38.059338],[-84.464008,38.059284],[-84.463682,38.058947],[-84.463577,38.058836],[-84.463541,38.058799],[-84.463481,38.058737],[-84.463403,38.058656],[-84.462947,38.058182],[-84.462925,38.05816],[-84.4629,38.058134],[-84.462259,38.057462],[-84.461891,38.057077],[-84.461828,38.057012],[-84.461691,38.056867],[-84.461347,38.056508],[-84.461329,38.05649],[-84.461126,38.056277],[-84.460914,38.056055],[-84.460709,38.05584],[-84.46064,38.055771],[-84.460577,38.055709],[-84.460541,38.05567],[-84.460402,38.055525],[-84.460158,38.055272],[-84.459919,38.055023],[-84.45985,38.054952],[-84.459679,38.054774],[-84.459537,38.054628],[-84.459394,38.054478],[-84.459097,38.054169],[-84.458443,38.053489],[-84.458219,38.053253],[-84.457841,38.052863],[-84.457597,38.052609],[-84.457341,38.052344],[-84.45708,38.052072],[-84.456955,38.051943],[-84.456771,38.051752],[-84.45665,38.051626],[-84.45611,38.051064],[-84.456047,38.051],[-84.455992,38.050944],[-84.455839,38.050789],[-84.455493,38.050416],[-84.455355,38.050268],[-84.455127,38.049994],[-84.455027,38.049859],[-84.454946,38.049747],[-84.454744,38.049471],[-84.454602,38.049263],[-84.45448,38.049056],[-84.454377,38.048853],[-84.454314,38.048714],[-84.454281,38.04864],[-84.454261,38.048585],[-84.454128,38.048225],[-84.454094,38.04812],[-84.454061,38.048015],[-84.454005,38.047806],[-84.453957,38.04758],[-84.453942,38.047495],[-84.453918,38.047354],[-84.453901,38.047222],[-84.453888,38.047121],[-84.45388,38.046986],[-84.453873,38.046872],[-84.453871,38.046804],[-84.45387,38.046656],[-84.453869,38.046584],[-84.453863,38.046524],[-84.453865,38.046413],[-84.453868,38.046285],[-84.453873,38.046193],[-84.45388,38.046098],[-84.453886,38.045981],[-84.453892,38.045888],[-84.453939,38.045131],[-84.45387,38.044993],[-84.453676,38.044271],[-84.453604,38.044001],[-84.453554,38.043776],[-84.45354,38.043649],[-84.453548,38.043517],[-84.453561,38.043452],[-84.453591,38.043364],[-84.453635,38.043283],[-84.453684,38.04321],[-84.453744,38.043143],[-84.453828,38.043068],[-84.453891,38.043023],[-84.453963,38.042981],[-84.454109,38.042906],[-84.454283,38.042914],[-84.454469,38.042924],[-84.454611,38.042933],[-84.454625,38.042933],[-84.455488,38.042982],[-84.455794,38.042992],[-84.456356,38.042989],[-84.456746,38.042979],[-84.457089,38.042956],[-84.457559,38.042924],[-84.457797,38.042907],[-84.458294,38.042863],[-84.458443,38.042781],[-84.459804,38.04266],[-84.460245,38.042622],[-84.460292,38.042617],[-84.461177,38.042538],[-84.461195,38.042538],[-84.461509,38.04251],[-84.461756,38.042488],[-84.461891,38.042476],[-84.462221,38.042447],[-84.462616,38.042412],[-84.462949,38.042383],[-84.463368,38.042345],[-84.463675,38.042318],[-84.463722,38.042314],[-84.463976,38.042292],[-84.464046,38.042285],[-84.464266,38.042266],[-84.46448,38.042247],[-84.464675,38.042228],[-84.464787,38.042218],[-84.465096,38.042188],[-84.465408,38.042158],[-84.465503,38.04215],[-84.465684,38.042132],[-84.466002,38.042102],[-84.466211,38.042082],[-84.466368,38.04207],[-84.466577,38.042051],[-84.466816,38.04203],[-84.466897,38.042023],[-84.467542,38.041965],[-84.468052,38.041921],[-84.468349,38.041895],[-84.46907,38.041832],[-84.469219,38.041819],[-84.469496,38.041795],[-84.469938,38.041756],[-84.470436,38.041714],[-84.47058,38.041702],[-84.470673,38.041695],[-84.470832,38.041682],[-84.471071,38.041666],[-84.471126,38.04166],[-84.471232,38.041652],[-84.471344,38.041645],[-84.471696,38.041616],[-84.471798,38.041608],[-84.472241,38.041571],[-84.472481,38.041551],[-84.473122,38.041494],[-84.473647,38.041453],[-84.474524,38.04137],[-84.47472,38.041353],[-84.474882,38.041338],[-84.475296,38.041301],[-84.475399,38.041292],[-84.475896,38.04125],[-84.476154,38.041228],[-84.476415,38.041206],[-84.476771,38.041176],[-84.477347,38.041127],[-84.477535,38.041111],[-84.47789,38.041095],[-84.478125,38.0411],[-84.478172,38.041101],[-84.47846,38.041116],[-84.478671,38.041135],[-84.478884,38.041169],[-84.479076,38.041208],[-84.479338,38.041268],[-84.479574,38.04134],[-84.479664,38.04137],[-84.479821,38.041422],[-84.479967,38.041497],[-84.48003,38.041528],[-84.480184,38.041608],[-84.480401,38.041727],[-84.480623,38.041849],[-84.480765,38.041927],[-84.481182,38.04216],[-84.481246,38.042195],[-84.481423,38.042305],[-84.481646,38.042439],[-84.481798,38.042518],[-84.481958,38.04259],[-84.482405,38.042807],[-84.482508,38.042857],[-84.482588,38.042901],[-84.482868,38.04306],[-84.483252,38.043277],[-84.483488,38.043409],[-84.483948,38.043667],[-84.484036,38.043717],[-84.484121,38.043765],[-84.484575,38.04402],[-84.484916,38.044203],[-84.485003,38.04424],[-84.485237,38.04432],[-84.485387,38.044373],[-84.485626,38.04444],[-84.485689,38.044462],[-84.485798,38.044497],[-84.486489,38.044721],[-84.487006,38.044883],[-84.487485,38.04504],[-84.487566,38.045075],[-84.487637,38.045108],[-84.487848,38.045283],[-84.488091,38.045499],[-84.488249,38.045639],[-84.488291,38.045677],[-84.48833,38.045712],[-84.488717,38.046059],[-84.489086,38.04639],[-84.489137,38.046437],[-84.489229,38.046524],[-84.489293,38.046582],[-84.489527,38.046792],[-84.489661,38.046912],[-84.490278,38.04747],[-84.490299,38.04749],[-84.490511,38.047678],[-84.490661,38.047811],[-84.49077,38.047909],[-84.490847,38.047977],[-84.490896,38.048021],[-84.490954,38.048067],[-84.491535,38.048598],[-84.491869,38.048902],[-84.49226,38.04926],[-84.492511,38.049489],[-84.492551,38.049526],[-84.492502,38.04956],[-84.492452,38.049595],[-84.491977,38.049928],[-84.491541,38.050244],[-84.491452,38.050304],[-84.491182,38.050497],[-84.490859,38.050728],[-84.490581,38.050928],[-84.490525,38.050973],[-84.490471,38.051011],[-84.489007,38.052048],[-84.48852,38.052387],[-84.488467,38.052425],[-84.4884,38.052472],[-84.487703,38.05296],[-84.487256,38.053276],[-84.487215,38.053304],[-84.487151,38.053349],[-84.486771,38.053615],[-84.486518,38.053791],[-84.486435,38.053851],[-84.486381,38.053888],[-84.486323,38.053929],[-84.486153,38.054048],[-84.485484,38.054515],[-84.484925,38.054909],[-84.484872,38.054946],[-84.48482,38.054983],[-84.484742,38.055037],[-84.484432,38.055253],[-84.484313,38.055336],[-84.484256,38.055376],[-84.484199,38.055416],[-84.483915,38.055625],[-84.483886,38.055645],[-84.483563,38.05588],[-84.483237,38.056112],[-84.482941,38.056324],[-84.4829,38.056352],[-84.482529,38.056611],[-84.48217,38.056857],[-84.482106,38.056902],[-84.481968,38.057],[-84.481764,38.057138],[-84.481663,38.057206],[-84.481633,38.057226],[-84.481546,38.057288],[-84.481598,38.057338],[-84.482241,38.057895],[-84.482364,38.058002],[-84.482659,38.05828],[-84.482857,38.058464],[-84.483211,38.058766],[-84.483411,38.058934],[-84.483506,38.059016],[-84.483731,38.059225],[-84.483861,38.059346],[-84.484012,38.059487],[-84.484163,38.059632],[-84.484244,38.059703],[-84.484328,38.059781],[-84.484436,38.059881],[-84.484497,38.059938],[-84.484501,38.059942],[-84.484587,38.060047],[-84.484613,38.060078],[-84.484705,38.060222],[-84.484728,38.060258],[-84.48479,38.060411],[-84.484843,38.060564],[-84.484894,38.060691],[-84.484932,38.060811],[-84.48501,38.06101],[-84.485031,38.061047],[-84.48506,38.061098],[-84.485132,38.061197],[-84.485178,38.061251],[-84.48522,38.061296],[-84.485404,38.061467],[-84.48543,38.061491],[-84.485734,38.061698],[-84.485937,38.061865],[-84.486264,38.062197],[-84.486414,38.062345],[-84.486583,38.062501],[-84.486781,38.062678],[-84.486968,38.062837],[-84.487077,38.062915],[-84.487205,38.062992],[-84.487414,38.063098],[-84.487679,38.063207],[-84.487919,38.063292],[-84.488094,38.063312],[-84.488266,38.063321],[-84.488439,38.063321],[-84.488615,38.06331],[-84.489602,38.063165],[-84.490113,38.063086],[-84.491001,38.062949],[-84.491388,38.062889],[-84.492569,38.062707],[-84.492737,38.062681],[-84.493361,38.062589],[-84.493387,38.062583],[-84.493516,38.062563],[-84.493768,38.062533],[-84.49387,38.062525],[-84.493976,38.06252],[-84.494046,38.06252],[-84.494056,38.06252],[-84.494159,38.062523],[-84.494265,38.06253],[-84.494309,38.062534],[-84.494366,38.062541],[-84.494505,38.062561],[-84.494855,38.062612],[-84.495167,38.062734],[-84.495347,38.062804],[-84.496379,38.063186],[-84.49744,38.06358],[-84.497967,38.063771],[-84.499294,38.064248],[-84.499422,38.064274],[-84.499589,38.064285]]]}},{"type":"Feature","id":"eastend","properties":{"id":"eastend","label":"East End","category":"residential"},"geometry":{"type":"Polygon","coordinates":[[[-84.481646,38.042439],[-84.481423,38.042305],[-84.481246,38.042195],[-84.481182,38.04216],[-84.480765,38.041927],[-84.480623,38.041849],[-84.480401,38.041727],[-84.480184,38.041608],[-84.48003,38.041528],[-84.479967,38.041497],[-84.479821,38.041422],[-84.479664,38.04137],[-84.479574,38.04134],[-84.479338,38.041268],[-84.479076,38.041208],[-84.478884,38.041169],[-84.478671,38.041135],[-84.47846,38.041116],[-84.478172,38.041101],[-84.478125,38.0411],[-84.47789,38.041095],[-84.477535,38.041111],[-84.477347,38.041127],[-84.476771,38.041176],[-84.476415,38.041206],[-84.476154,38.041228],[-84.475896,38.04125],[-84.475399,38.041292],[-84.475296,38.041301],[-84.474882,38.041338],[-84.47472,38.041353],[-84.474524,38.04137],[-84.473647,38.041453],[-84.473122,38.041494],[-84.472481,38.041551],[-84.472241,38.041571],[-84.471798,38.041608],[-84.471696,38.041616],[-84.471344,38.041645],[-84.471232,38.041652],[-84.471126,38.04166],[-84.471071,38.041666],[-84.470832,38.041682],[-84.470673,38.041695],[-84.47058,38.041702],[-84.470436,38.041714],[-84.469938,38.041756],[-84.469496,38.041795],[-84.469219,38.041819],[-84.46907,38.041832],[-84.468349,38.041895],[-84.468052,38.041921],[-84.467542,38.041965],[-84.466897,38.042023],[-84.466816,38.04203],[-84.466577,38.042051],[-84.466368,38.04207],[-84.466211,38.042082],[-84.466002,38.042102],[-84.465684,38.042132],[-84.465503,38.04215],[-84.465408,38.042158],[-84.465096,38.042188],[-84.464787,38.042218],[-84.464675,38.042228],[-84.46448,38.042247],[-84.464266,38.042266],[-84.464046,38.042285],[-84.463976,38.042292],[-84.463722,38.042314],[-84.463675,38.042318],[-84.463368,38.042345],[-84.462949,38.042383],[-84.462616,38.042412],[-84.462221,38.042447],[-84.461891,38.042476],[-84.461756,38.042488],[-84.461509,38.04251],[-84.461195,38.042538],[-84.461177,38.042538],[-84.460292,38.042617],[-84.460245,38.042622],[-84.459804,38.04266],[-84.458443,38.042781],[-84.458294,38.042863],[-84.457797,38.042907],[-84.457559,38.042924],[-84.457089,38.042956],[-84.456746,38.042979],[-84.456356,38.042989],[-84.455794,38.042992],[-84.455488,38.042982],[-84.454625,38.042933],[-84.454611,38.042933],[-84.454469,38.042924],[-84.454283,38.042914],[-84.454109,38.042906],[-84.45409,38.042916],[-84.454295,38.039874],[-84.45434,38.039135],[-84.454351,38.03895],[-84.454361,38.038657],[-84.454361,38.038566],[-84.454361,38.038468],[-84.454348,38.038126],[-84.454325,38.037789],[-84.454308,38.037624],[-84.454299,38.037534],[-84.454258,38.037138],[-84.454213,38.036842],[-84.454145,38.036399],[-84.454138,38.036351],[-84.454123,38.036272],[-84.45411,38.036202],[-84.454078,38.036013],[-84.454066,38.035962],[-84.454023,38.035774],[-84.454014,38.035739],[-84.453991,38.035656],[-84.453947,38.035494],[-84.453935,38.035451],[-84.453892,38.035306],[-84.453774,38.034907],[-84.453738,38.034805],[-84.453695,38.034663],[-84.453682,38.034617],[-84.453553,38.0342],[-84.453463,38.03391],[-84.453433,38.033812],[-84.453421,38.033775],[-84.453345,38.03353],[-84.453273,38.033296],[-84.45322,38.033119],[-84.453194,38.033033],[-84.453054,38.032571],[-84.453011,38.03243],[-84.452975,38.032317],[-84.452909,38.032113],[-84.452875,38.031999],[-84.452841,38.031884],[-84.45278,38.03168],[-84.452654,38.031255],[-84.452603,38.031058],[-84.452578,38.030943],[-84.452575,38.030923],[-84.452536,38.030699],[-84.45252,38.030602],[-84.452661,38.030588],[-84.452624,38.03024],[-84.452601,38.029898],[-84.452599,38.029873],[-84.452594,38.029682],[-84.452605,38.029418],[-84.452611,38.029365],[-84.452624,38.02924],[-84.452694,38.028591],[-84.452741,38.028366],[-84.452809,38.028102],[-84.452833,38.02803],[-84.452977,38.027546],[-84.453077,38.027271],[-84.453778,38.025348],[-84.454063,38.024589],[-84.454328,38.023889],[-84.45437,38.023774],[-84.454606,38.023137],[-84.454727,38.02281],[-84.454766,38.022704],[-84.454807,38.022594],[-84.45537,38.021068],[-84.455516,38.02067],[-84.455638,38.02034],[-84.45578,38.019955],[-84.45587,38.019711],[-84.456133,38.019],[-84.456256,38.018667],[-84.456547,38.017879],[-84.456586,38.017786],[-84.45662,38.017681],[-84.457056,38.016537],[-84.457168,38.016315],[-84.457302,38.016048],[-84.457387,38.015905],[-84.457475,38.01574],[-84.457994,38.014827],[-84.458235,38.014396],[-84.458309,38.014264],[-84.458563,38.013821],[-84.458724,38.013513],[-84.458873,38.013254],[-84.458903,38.013153],[-84.459256,38.013457],[-84.460357,38.014418],[-84.461153,38.015114],[-84.462318,38.016135],[-84.462399,38.016213],[-84.462457,38.016264],[-84.463363,38.017051],[-84.463422,38.017103],[-84.463661,38.01731],[-84.463741,38.01738],[-84.46404,38.017633],[-84.464107,38.01769],[-84.464333,38.017891],[-84.464778,38.018285],[-84.46488,38.018376],[-84.465417,38.018861],[-84.467421,38.020584],[-84.467523,38.020672],[-84.468572,38.021566],[-84.46866,38.02164],[-84.469451,38.022316],[-84.469816,38.022627],[-84.46995,38.022742],[-84.472851,38.025236],[-84.473602,38.025881],[-84.473625,38.025901],[-84.473685,38.025952],[-84.473803,38.026054],[-84.473999,38.026231],[-84.47413,38.026342],[-84.474175,38.026381],[-84.47424,38.026439],[-84.474261,38.026457],[-84.474351,38.026535],[-84.474415,38.02659],[-84.476032,38.027965],[-84.476155,38.02807],[-84.477159,38.028934],[-84.477239,38.029003],[-84.47755,38.029277],[-84.478043,38.029713],[-84.478853,38.030436],[-84.478985,38.03055],[-84.479094,38.030644],[-84.479178,38.030719],[-84.479671,38.03116],[-84.480028,38.031482],[-84.480397,38.031814],[-84.480993,38.032342],[-84.481208,38.032531],[-84.481263,38.032581],[-84.481583,38.032861],[-84.482211,38.033381],[-84.482303,38.03346],[-84.482324,38.033478],[-84.482423,38.033562],[-84.482439,38.033577],[-84.482554,38.033672],[-84.482615,38.033716],[-84.482692,38.033772],[-84.483062,38.034027],[-84.483099,38.034049],[-84.483295,38.034165],[-84.483356,38.034214],[-84.483517,38.034358],[-84.483765,38.03458],[-84.483907,38.034706],[-84.483994,38.034784],[-84.484116,38.034892],[-84.484161,38.034935],[-84.484301,38.035066],[-84.484388,38.035136],[-84.484451,38.035194],[-84.48455,38.035283],[-84.484642,38.035366],[-84.484795,38.035505],[-84.484845,38.03555],[-84.484939,38.035634],[-84.48501,38.035699],[-84.485505,38.036147],[-84.485786,38.036402],[-84.485955,38.036556],[-84.485995,38.036592],[-84.486041,38.036632],[-84.486113,38.036698],[-84.486418,38.036972],[-84.487294,38.037756],[-84.487545,38.037979],[-84.48783,38.038232],[-84.488103,38.038475],[-84.488237,38.038594],[-84.488314,38.038661],[-84.48879,38.039086],[-84.48885,38.039139],[-84.489078,38.039339],[-84.489142,38.039396],[-84.489311,38.039546],[-84.48948,38.039696],[-84.489596,38.0398],[-84.489793,38.039974],[-84.489865,38.040038],[-84.490072,38.040222],[-84.490185,38.040322],[-84.490225,38.040358],[-84.490283,38.040411],[-84.490676,38.04077],[-84.490827,38.040912],[-84.490931,38.041008],[-84.490999,38.04107],[-84.490913,38.041119],[-84.490846,38.041144],[-84.490789,38.041163],[-84.490685,38.041187],[-84.490454,38.041226],[-84.48966,38.041329],[-84.488955,38.041453],[-84.488693,38.041502],[-84.488537,38.041531],[-84.488468,38.041541],[-84.488061,38.041614],[-84.488005,38.041624],[-84.487962,38.041632],[-84.48791,38.041641],[-84.487803,38.04166],[-84.487218,38.041748],[-84.486135,38.041893],[-84.485158,38.04202],[-84.485027,38.042035],[-84.48453,38.042083],[-84.484336,38.042107],[-84.48417,38.042127],[-84.48314,38.042255],[-84.482907,38.042288],[-84.482037,38.042408],[-84.481646,38.042439]]]}},{"type":"Feature","id":"chevychase","properties":{"id":"chevychase","label":"Chevy Chase","category":"residential"},"geometry":{"type":"Polygon","coordinates":[[[-84.497311,38.04384],[-84.49723,38.043894],[-84.497213,38.043905],[-84.496693,38.044266],[-84.49639,38.04448],[-84.496149,38.044638],[-84.495861,38.044836],[-84.495635,38.044992],[-84.495624,38.045],[-84.495557,38.045041],[-84.495486,38.044972],[-84.49515,38.044681],[-84.494984,38.044537],[-84.49488,38.044447],[-84.494716,38.044305],[-84.494666,38.044261],[-84.494591,38.044196],[-84.494274,38.043919],[-84.494085,38.043753],[-84.494023,38.043699],[-84.493951,38.043635],[-84.493698,38.043414],[-84.493555,38.043289],[-84.493503,38.043243],[-84.493465,38.043208],[-84.493376,38.043127],[-84.493256,38.043013],[-84.493063,38.042836],[-84.493004,38.042783],[-84.492938,38.042731],[-84.492847,38.042658],[-84.492785,38.042608],[-84.492514,38.042369],[-84.49246,38.042322],[-84.492367,38.04224],[-84.492238,38.042126],[-84.492119,38.042022],[-84.491865,38.041798],[-84.491737,38.041685],[-84.491538,38.04151],[-84.491344,38.041357],[-84.491139,38.041184],[-84.491084,38.041139],[-84.490999,38.04107],[-84.490931,38.041008],[-84.490827,38.040912],[-84.490676,38.04077],[-84.490283,38.040411],[-84.490225,38.040358],[-84.490185,38.040322],[-84.490072,38.040222],[-84.489865,38.040038],[-84.489793,38.039974],[-84.489596,38.0398],[-84.48948,38.039696],[-84.489311,38.039546],[-84.489142,38.039396],[-84.489078,38.039339],[-84.48885,38.039139],[-84.48879,38.039086],[-84.488314,38.038661],[-84.488237,38.038594],[-84.488103,38.038475],[-84.48783,38.038232],[-84.487545,38.037979],[-84.487294,38.037756],[-84.486418,38.036972],[-84.486113,38.036698],[-84.486041,38.036632],[-84.485995,38.036592],[-84.485955,38.036556],[-84.485786,38.036402],[-84.485505,38.036147],[-84.48501,38.035699],[-84.484939,38.035634],[-84.484845,38.03555],[-84.484795,38.035505],[-84.484642,38.035366],[-84.48455,38.035283],[-84.484451,38.035194],[-84.484388,38.035136],[-84.484301,38.035066],[-84.484161,38.034935],[-84.484116,38.034892],[-84.483994,38.034784],[-84.483907,38.034706],[-84.483765,38.03458],[-84.483517,38.034358],[-84.483356,38.034214],[-84.483295,38.034165],[-84.483099,38.034049],[-84.483062,38.034027],[-84.482692,38.033772],[-84.482615,38.033716],[-84.482554,38.033672],[-84.482439,38.033577],[-84.482423,38.033562],[-84.482324,38.033478],[-84.482303,38.03346],[-84.482211,38.033381],[-84.481583,38.032861],[-84.481263,38.032581],[-84.481208,38.032531],[-84.480993,38.032342],[-84.480397,38.031814],[-84.480028,38.031482],[-84.479671,38.03116],[-84.479178,38.030719],[-84.479094,38.030644],[-84.478985,38.03055],[-84.478853,38.030436],[-84.478043,38.029713],[-84.47755,38.029277],[-84.477239,38.029003],[-84.477159,38.028934],[-84.476155,38.02807],[-84.476032,38.027965],[-84.474415,38.02659],[-84.474351,38.026535],[-84.474261,38.026457],[-84.47424,38.026439],[-84.474175,38.026381],[-84.47413,38.026342],[-84.473999,38.026231],[-84.473803,38.026054],[-84.473685,38.025952],[-84.473625,38.025901],[-84.473602,38.025881],[-84.472851,38.025236],[-84.46995,38.022742],[-84.469816,38.022627],[-84.469451,38.022316],[-84.46866,38.02164],[-84.468572,38.021566],[-84.467523,38.020672],[-84.467421,38.020584],[-84.465417,38.018861],[-84.46488,38.018376],[-84.464778,38.018285],[-84.464333,38.017891],[-84.464107,38.01769],[-84.46404,38.017633],[-84.463741,38.01738],[-84.463661,38.01731],[-84.463422,38.017103],[-84.463363,38.017051],[-84.462457,38.016264],[-84.462399,38.016213],[-84.462318,38.016135],[-84.461153,38.015114],[-84.460357,38.014418],[-84.459256,38.013457],[-84.459113,38.013396],[-84.459072,38.013388],[-84.459025,38.013384],[-84.45897,38.013394],[-84.45892,38.01341],[-84.458877,38.013432],[-84.458834,38.013465],[-84.458781,38.013518],[-84.458563,38.013821],[-84.458309,38.014264],[-84.458235,38.014396],[-84.457994,38.014827],[-84.457475,38.01574],[-84.457387,38.015905],[-84.457302,38.016048],[-84.457168,38.016315],[-84.457056,38.016537],[-84.45662,38.017681],[-84.456586,38.017786],[-84.456436,38.017754],[-84.456476,38.017645],[-84.456596,38.01732],[-84.456744,38.016918],[-84.456835,38.016672],[-84.456897,38.0165],[-84.457619,38.014531],[-84.458067,38.013257],[-84.458209,38.012854],[-84.458423,38.012265],[-84.459856,38.008423],[-84.459909,38.008276],[-84.460007,38.008003],[-84.460042,38.007907],[-84.4601,38.007751],[-84.460384,38.006985],[-84.46065,38.006218],[-84.460853,38.005578],[-84.461129,38.004588],[-84.461313,38.003893],[-84.461638,38.002664],[-84.462033,38.001127],[-84.462119,38.000829],[-84.462145,38.000713],[-84.462277,38.000308],[-84.462343,38.00009],[-84.462572,37.999534],[-84.462803,37.999054],[-84.462952,37.998774],[-84.463044,37.998617],[-84.463287,37.998209],[-84.46348,37.997919],[-84.463799,37.997484],[-84.464313,37.996877],[-84.464705,37.996461],[-84.465205,37.995996],[-84.465395,37.99583],[-84.465853,37.995457],[-84.466254,37.995162],[-84.466641,37.994897],[-84.466905,37.994728],[-84.467123,37.994594],[-84.46759,37.994324],[-84.468271,37.993977],[-84.468503,37.99387],[-84.469119,37.993607],[-84.469343,37.993521],[-84.469991,37.993289],[-84.47049,37.993131],[-84.471136,37.992953],[-84.471496,37.992867],[-84.471937,37.992771],[-84.472521,37.992669],[-84.472923,37.992607],[-84.473295,37.992565],[-84.473822,37.992512],[-84.47485,37.992429],[-84.480847,37.991964],[-84.480888,37.99196],[-84.480934,37.991957],[-84.481651,37.991901],[-84.482123,37.991865],[-84.489138,37.991323],[-84.494561,37.990903],[-84.494947,37.990874],[-84.495049,37.991726],[-84.495064,37.991832],[-84.495127,37.992189],[-84.495173,37.992542],[-84.495243,37.993079],[-84.495315,37.99357],[-84.495422,37.994303],[-84.495527,37.995017],[-84.495571,37.995318],[-84.495588,37.995433],[-84.49561,37.995639],[-84.495693,37.996455],[-84.495736,37.996878],[-84.495752,37.997033],[-84.495758,37.99709],[-84.495779,37.997301],[-84.495794,37.997463],[-84.495836,37.997923],[-84.495847,37.998167],[-84.495869,37.998635],[-84.495907,37.999459],[-84.495907,37.999485],[-84.495906,37.999532],[-84.49591,37.999667],[-84.495912,37.999787],[-84.495928,38.000663],[-84.495929,38.000682],[-84.495939,38.001252],[-84.495957,38.002217],[-84.495961,38.002541],[-84.495981,38.003287],[-84.495984,38.003399],[-84.495982,38.00352],[-84.49598,38.003688],[-84.495986,38.004217],[-84.495991,38.004731],[-84.495994,38.005065],[-84.495996,38.005235],[-84.496,38.005569],[-84.496,38.005642],[-84.496006,38.006207],[-84.496013,38.006834],[-84.496011,38.007089],[-84.496003,38.008065],[-84.496002,38.008217],[-84.496001,38.008293],[-84.495996,38.008576],[-84.495977,38.0089],[-84.495943,38.009218],[-84.495906,38.00949],[-84.495858,38.009759],[-84.495671,38.010819],[-84.49556,38.011446],[-84.49551,38.01173],[-84.495457,38.01205],[-84.495443,38.012134],[-84.495397,38.012482],[-84.495357,38.012894],[-84.49534,38.013123],[-84.495323,38.013329],[-84.495315,38.01343],[-84.49531,38.013516],[-84.495306,38.01358],[-84.495298,38.013695],[-84.495285,38.013876],[-84.495228,38.014687],[-84.49521,38.014884],[-84.495152,38.01585],[-84.495134,38.016098],[-84.495105,38.016508],[-84.495071,38.017038],[-84.495025,38.017751],[-84.495022,38.017786],[-84.494986,38.018275],[-84.49498,38.018397],[-84.494949,38.018556],[-84.494905,38.018717],[-84.494857,38.018811],[-84.494779,38.018934],[-84.494664,38.019076],[-84.494518,38.019287],[-84.494359,38.019517],[-84.494324,38.019568],[-84.494294,38.01961],[-84.494256,38.019665],[-84.49415,38.019815],[-84.492981,38.021478],[-84.492898,38.021596],[-84.492848,38.021666],[-84.492805,38.021727],[-84.492192,38.022603],[-84.492075,38.022763],[-84.491802,38.023138],[-84.491626,38.023404],[-84.491492,38.023647],[-84.491426,38.023807],[-84.491408,38.02385],[-84.491375,38.023972],[-84.491291,38.02432],[-84.491253,38.024465],[-84.491186,38.024703],[-84.491169,38.024775],[-84.491159,38.024814],[-84.491001,38.02545],[-84.490989,38.025499],[-84.490974,38.025565],[-84.490963,38.025633],[-84.490845,38.026106],[-84.490756,38.026467],[-84.490743,38.026516],[-84.490683,38.02675],[-84.490512,38.027409],[-84.490496,38.027471],[-84.490476,38.027566],[-84.49045,38.027671],[-84.490414,38.027828],[-84.490401,38.027886],[-84.490384,38.027964],[-84.490366,38.028044],[-84.49033,38.028204],[-84.490316,38.028264],[-84.490302,38.028323],[-84.490277,38.028435],[-84.490187,38.028762],[-84.490139,38.028937],[-84.490068,38.029192],[-84.490052,38.029249],[-84.490031,38.029326],[-84.489985,38.0295],[-84.489934,38.029685],[-84.489805,38.030152],[-84.489785,38.030225],[-84.489761,38.030314],[-84.489744,38.030437],[-84.489736,38.030496],[-84.489764,38.03055],[-84.489917,38.030861],[-84.490049,38.03113],[-84.490089,38.03121],[-84.49015,38.031336],[-84.490163,38.031362],[-84.490258,38.031542],[-84.490314,38.031649],[-84.490414,38.031838],[-84.490477,38.031964],[-84.490702,38.03241],[-84.490738,38.032481],[-84.490772,38.032556],[-84.49107,38.033158],[-84.491118,38.033255],[-84.491143,38.033306],[-84.491175,38.033372],[-84.491258,38.033539],[-84.491323,38.033672],[-84.491336,38.033698],[-84.491506,38.034042],[-84.491529,38.034089],[-84.491565,38.034163],[-84.491823,38.034686],[-84.491881,38.0348],[-84.491908,38.034859],[-84.491935,38.034916],[-84.492007,38.035067],[-84.492062,38.035182],[-84.492194,38.035451],[-84.492213,38.035483],[-84.492316,38.035699],[-84.49236,38.035771],[-84.492369,38.035785],[-84.492818,38.036686],[-84.492861,38.036763],[-84.492891,38.036829],[-84.493033,38.037168],[-84.493127,38.03743],[-84.493157,38.037516],[-84.493211,38.037664],[-84.49326,38.037803],[-84.493351,38.038057],[-84.493356,38.038069],[-84.493377,38.038124],[-84.493429,38.038266],[-84.493551,38.0386],[-84.493662,38.038905],[-84.493702,38.039013],[-84.49382,38.039336],[-84.493835,38.039378],[-84.493848,38.039417],[-84.493984,38.039809],[-84.494031,38.039946],[-84.494044,38.039981],[-84.494094,38.040115],[-84.49411,38.040163],[-84.494166,38.040325],[-84.494187,38.040384],[-84.494192,38.040399],[-84.494258,38.04059],[-84.494304,38.040723],[-84.494348,38.04085],[-84.494411,38.041034],[-84.494461,38.041178],[-84.494488,38.041256],[-84.494519,38.041311],[-84.494584,38.041393],[-84.494629,38.04145],[-84.494693,38.041502],[-84.494785,38.041576],[-84.494817,38.041601],[-84.494876,38.041654],[-84.494903,38.041678],[-84.495029,38.04179],[-84.495061,38.041818],[-84.495268,38.042003],[-84.495292,38.042025],[-84.495473,38.042186],[-84.495484,38.042196],[-84.495552,38.042257],[-84.495861,38.042535],[-84.496092,38.042743],[-84.496103,38.042753],[-84.496229,38.042865],[-84.496293,38.042923],[-84.496459,38.043071],[-84.496506,38.043113],[-84.496638,38.043227],[-84.496663,38.043248],[-84.496685,38.043267],[-84.496738,38.043316],[-84.496928,38.043489],[-84.497101,38.043647],[-84.49714,38.043683],[-84.497257,38.04379],[-84.497311,38.04384]]]}},{"type":"Feature","id":"university","properties":{"id":"university","label":"University","category":"government"},"geometry":{"type":"Polygon","coordinates":[[[-84.501656,38.047701],[-84.501575,38.047631],[-84.50137,38.047453],[-84.500959,38.047097],[-84.500769,38.046932],[-84.500709,38.04688],[-84.500658,38.046834],[-84.500371,38.046572],[-84.50003,38.046261],[-84.499739,38.045996],[-84.49969,38.045952],[-84.499636,38.045906],[-84.49932,38.045629],[-84.499298,38.04561],[-84.498822,38.045193],[-84.498773,38.04515],[-84.498729,38.045108],[-84.498523,38.044916],[-84.498478,38.044874],[-84.498367,38.044776],[-84.49835,38.04476],[-84.498228,38.044652],[-84.49803,38.044477],[-84.497661,38.04415],[-84.497375,38.043896],[-84.497311,38.04384],[-84.497257,38.04379],[-84.49714,38.043683],[-84.497101,38.043647],[-84.496928,38.043489],[-84.496738,38.043316],[-84.496685,38.043267],[-84.496663,38.043248],[-84.496638,38.043227],[-84.496506,38.043113],[-84.496459,38.043071],[-84.496293,38.042923],[-84.496229,38.042865],[-84.496103,38.042753],[-84.496092,38.042743],[-84.495861,38.042535],[-84.495552,38.042257],[-84.495484,38.042196],[-84.495473,38.042186],[-84.495292,38.042025],[-84.495268,38.042003],[-84.495061,38.041818],[-84.495029,38.04179],[-84.494903,38.041678],[-84.494876,38.041654],[-84.494817,38.041601],[-84.494785,38.041576],[-84.494693,38.041502],[-84.494629,38.04145],[-84.494584,38.041393],[-84.494519,38.041311],[-84.494488,38.041256],[-84.494461,38.041178],[-84.494411,38.041034],[-84.494348,38.04085],[-84.494304,38.040723],[-84.494258,38.04059],[-84.494192,38.040399],[-84.494187,38.040384],[-84.494166,38.040325],[-84.49411,38.040163],[-84.494094,38.040115],[-84.494044,38.039981],[-84.494031,38.039946],[-84.493984,38.039809],[-84.493848,38.039417],[-84.493835,38.039378],[-84.49382,38.039336],[-84.493702,38.039013],[-84.493662,38.038905],[-84.493551,38.0386],[-84.493429,38.038266],[-84.493377,38.038124],[-84.493356,38.038069],[-84.493351,38.038057],[-84.49326,38.037803],[-84.493211,38.037664],[-84.493157,38.037516],[-84.493127,38.03743],[-84.493033,38.037168],[-84.492891,38.036829],[-84.492861,38.036763],[-84.492818,38.036686],[-84.492369,38.035785],[-84.49236,38.035771],[-84.492316,38.035699],[-84.492213,38.035483],[-84.492194,38.035451],[-84.492062,38.035182],[-84.492007,38.035067],[-84.491935,38.034916],[-84.491908,38.034859],[-84.491881,38.0348],[-84.491823,38.034686],[-84.491565,38.034163],[-84.491529,38.034089],[-84.491506,38.034042],[-84.491336,38.033698],[-84.491323,38.033672],[-84.491258,38.033539],[-84.491175,38.033372],[-84.491143,38.033306],[-84.491118,38.033255],[-84.49107,38.033158],[-84.490772,38.032556],[-84.490738,38.032481],[-84.490702,38.03241],[-84.490477,38.031964],[-84.490414,38.031838],[-84.490314,38.031649],[-84.490258,38.031542],[-84.490163,38.031362],[-84.49015,38.031336],[-84.490089,38.03121],[-84.490049,38.03113],[-84.489917,38.030861],[-84.489764,38.03055],[-84.489736,38.030496],[-84.489744,38.030437],[-84.489761,38.030314],[-84.489785,38.030225],[-84.489805,38.030152],[-84.489934,38.029685],[-84.489985,38.0295],[-84.490031,38.029326],[-84.490052,38.029249],[-84.490068,38.029192],[-84.490139,38.028937],[-84.490187,38.028762],[-84.490277,38.028435],[-84.490302,38.028323],[-84.490316,38.028264],[-84.49033,38.028204],[-84.490366,38.028044],[-84.490384,38.027964],[-84.490401,38.027886],[-84.490414,38.027828],[-84.49045,38.027671],[-84.490476,38.027566],[-84.490496,38.027471],[-84.490512,38.027409],[-84.490683,38.02675],[-84.490743,38.026516],[-84.490756,38.026467],[-84.490845,38.026106],[-84.490963,38.025633],[-84.490974,38.025565],[-84.490989,38.025499],[-84.491001,38.02545],[-84.491159,38.024814],[-84.491169,38.024775],[-84.491186,38.024703],[-84.491253,38.024465],[-84.491291,38.02432],[-84.491375,38.023972],[-84.491408,38.02385],[-84.491426,38.023807],[-84.491492,38.023647],[-84.491626,38.023404],[-84.491802,38.023138],[-84.492075,38.022763],[-84.492192,38.022603],[-84.492805,38.021727],[-84.492848,38.021666],[-84.492898,38.021596],[-84.492981,38.021478],[-84.49415,38.019815],[-84.494256,38.019665],[-84.494294,38.01961],[-84.494324,38.019568],[-84.494359,38.019517],[-84.494518,38.019287],[-84.494664,38.019076],[-84.494779,38.018934],[-84.494857,38.018811],[-84.494905,38.018717],[-84.494949,38.018556],[-84.49498,38.018397],[-84.494986,38.018275],[-84.495022,38.017786],[-84.495025,38.017751],[-84.495071,38.017038],[-84.495105,38.016508],[-84.495134,38.016098],[-84.495152,38.01585],[-84.49521,38.014884],[-84.495228,38.014687],[-84.495285,38.013876],[-84.495298,38.013695],[-84.495306,38.01358],[-84.49531,38.013516],[-84.495315,38.01343],[-84.495396,38.013458],[-84.49558,38.013523],[-84.495794,38.013588],[-84.496176,38.013695],[-84.496378,38.013743],[-84.49678,38.013812],[-84.497084,38.013856],[-84.497313,38.013875],[-84.497849,38.014015],[-84.498369,38.014174],[-84.49856,38.014261],[-84.498732,38.014364],[-84.498863,38.014473],[-84.498894,38.014507],[-84.499014,38.014607],[-84.499186,38.014787],[-84.499389,38.014996],[-84.499772,38.015407],[-84.500038,38.015695],[-84.500397,38.016074],[-84.500582,38.016265],[-84.500703,38.016365],[-84.500847,38.016456],[-84.50101,38.016525],[-84.501227,38.016601],[-84.501394,38.016646],[-84.501501,38.016674],[-84.501663,38.016721],[-84.502057,38.016829],[-84.502234,38.016875],[-84.50284,38.01704],[-84.50305,38.017097],[-84.503555,38.017258],[-84.50381,38.017381],[-84.503917,38.017438],[-84.504051,38.017523],[-84.504197,38.01763],[-84.504409,38.01782],[-84.504459,38.017864],[-84.5047,38.018086],[-84.504879,38.018253],[-84.504961,38.01833],[-84.505161,38.0185],[-84.505228,38.018536],[-84.505326,38.018573],[-84.505409,38.0186],[-84.505492,38.018612],[-84.505545,38.018633],[-84.505589,38.018665],[-84.505622,38.018705],[-84.505642,38.018749],[-84.505646,38.018797],[-84.505642,38.018821],[-84.505643,38.018867],[-84.505653,38.018912],[-84.505669,38.018966],[-84.50587,38.019155],[-84.506179,38.019422],[-84.506383,38.019628],[-84.506553,38.019841],[-84.506797,38.020175],[-84.507006,38.02039],[-84.507226,38.020575],[-84.507395,38.020705],[-84.507602,38.020832],[-84.507901,38.02099],[-84.508146,38.021105],[-84.508243,38.021154],[-84.508629,38.02134],[-84.508816,38.021429],[-84.509055,38.021542],[-84.509198,38.021578],[-84.50931,38.021587],[-84.509416,38.021576],[-84.509494,38.021562],[-84.509577,38.021586],[-84.509644,38.021623],[-84.509692,38.021676],[-84.509713,38.021738],[-84.509756,38.021825],[-84.509806,38.021885],[-84.509921,38.021948],[-84.510142,38.022045],[-84.511147,38.022493],[-84.511268,38.022571],[-84.511989,38.022888],[-84.512369,38.023039],[-84.512485,38.023087],[-84.512551,38.022884],[-84.512566,38.022839],[-84.512603,38.022733],[-84.512654,38.022584],[-84.512731,38.022364],[-84.512781,38.022221],[-84.512858,38.021999],[-84.512893,38.021912],[-84.51311,38.021332],[-84.51318,38.021148],[-84.513248,38.020968],[-84.513288,38.02085],[-84.513328,38.020735],[-84.513395,38.020538],[-84.513421,38.020453],[-84.513469,38.020324],[-84.513496,38.020249],[-84.513614,38.019913],[-84.513673,38.019746],[-84.513715,38.019627],[-84.513782,38.019436],[-84.513813,38.019349],[-84.513829,38.019301],[-84.513853,38.01923],[-84.513901,38.019094],[-84.51392,38.019033],[-84.513963,38.018912],[-84.513999,38.018808],[-84.514058,38.018642],[-84.514116,38.01847],[-84.514147,38.018382],[-84.514302,38.017931],[-84.514312,38.017901],[-84.514397,38.017666],[-84.514465,38.017482],[-84.514543,38.017266],[-84.514556,38.017225],[-84.514573,38.017177],[-84.514607,38.017075],[-84.514656,38.016939],[-84.514758,38.016972],[-84.514872,38.017009],[-84.515318,38.017154],[-84.51567,38.017268],[-84.51593,38.017355],[-84.516542,38.01756],[-84.516703,38.017614],[-84.517404,38.017849],[-84.519303,38.018491],[-84.519478,38.01855],[-84.521236,38.019132],[-84.521282,38.019148],[-84.521478,38.019218],[-84.521869,38.019351],[-84.52246,38.01956],[-84.523382,38.019876],[-84.523904,38.020057],[-84.523956,38.020074],[-84.524115,38.020128],[-84.524424,38.020242],[-84.524758,38.020384],[-84.524924,38.020463],[-84.525074,38.020533],[-84.525192,38.020589],[-84.525787,38.020882],[-84.525845,38.020911],[-84.52684,38.0214],[-84.526876,38.021418],[-84.526941,38.02145],[-84.527437,38.021696],[-84.527855,38.021904],[-84.527902,38.021926],[-84.528113,38.022031],[-84.528155,38.022047],[-84.528308,38.02212],[-84.528466,38.022196],[-84.528507,38.022215],[-84.528526,38.022224],[-84.528627,38.022275],[-84.528758,38.022341],[-84.528913,38.022408],[-84.528955,38.022426],[-84.529474,38.022655],[-84.529933,38.022858],[-84.530787,38.023242],[-84.531173,38.02341],[-84.531296,38.023463],[-84.531485,38.023544],[-84.531591,38.02359],[-84.532049,38.02379],[-84.532209,38.023858],[-84.532338,38.023914],[-84.53289,38.024171],[-84.533048,38.024255],[-84.533243,38.024372],[-84.533394,38.024489],[-84.533574,38.024652],[-84.533702,38.024808],[-84.533766,38.024891],[-84.533833,38.024994],[-84.533901,38.025123],[-84.53402,38.025439],[-84.534084,38.025578],[-84.53414,38.025673],[-84.534214,38.025766],[-84.53429,38.025929],[-84.534579,38.026294],[-84.534598,38.026319],[-84.534727,38.026482],[-84.534738,38.026494],[-84.534802,38.026562],[-84.534715,38.026602],[-84.534666,38.026634],[-84.53456,38.026693],[-84.534336,38.026817],[-84.534229,38.026881],[-84.533979,38.027029],[-84.533716,38.027185],[-84.533314,38.027424],[-84.533306,38.027428],[-84.533169,38.027509],[-84.533066,38.02757],[-84.532955,38.027636],[-84.532831,38.02771],[-84.532482,38.027916],[-84.532353,38.028007],[-84.531869,38.02835],[-84.531766,38.028423],[-84.531644,38.028507],[-84.530947,38.028989],[-84.530808,38.029085],[-84.530659,38.029188],[-84.530398,38.02937],[-84.530149,38.029542],[-84.530089,38.029585],[-84.529871,38.02974],[-84.529518,38.030001],[-84.52919,38.030219],[-84.529086,38.030286],[-84.529009,38.030336],[-84.528942,38.030378],[-84.528759,38.030492],[-84.528471,38.03067],[-84.528278,38.030777],[-84.528103,38.030881],[-84.527765,38.031081],[-84.527284,38.031366],[-84.527185,38.031425],[-84.527055,38.031502],[-84.52685,38.031624],[-84.526521,38.031819],[-84.52633,38.031932],[-84.526206,38.032006],[-84.526171,38.032027],[-84.52605,38.0321],[-84.525855,38.032219],[-84.525733,38.032293],[-84.525612,38.032365],[-84.525357,38.032517],[-84.525031,38.03271],[-84.524099,38.033264],[-84.523913,38.033364],[-84.5237,38.033479],[-84.523614,38.03353],[-84.523529,38.033592],[-84.523363,38.0337],[-84.523292,38.033742],[-84.523185,38.033809],[-84.522931,38.03396],[-84.522783,38.034045],[-84.522545,38.034183],[-84.522467,38.034231],[-84.522188,38.034396],[-84.521852,38.034593],[-84.521738,38.034664],[-84.521473,38.034826],[-84.521329,38.034914],[-84.520979,38.035129],[-84.520435,38.035477],[-84.520203,38.035625],[-84.52007,38.03571],[-84.519959,38.035781],[-84.519822,38.035868],[-84.519672,38.035963],[-84.519493,38.036077],[-84.519458,38.036096],[-84.519219,38.03625],[-84.519064,38.036348],[-84.518916,38.036442],[-84.51877,38.036535],[-84.518578,38.036656],[-84.518406,38.036796],[-84.518327,38.03686],[-84.518262,38.036912],[-84.518181,38.036963],[-84.518177,38.036965],[-84.518028,38.037059],[-84.517848,38.037172],[-84.517424,38.037439],[-84.517204,38.037577],[-84.517037,38.037682],[-84.516947,38.037739],[-84.516885,38.037778],[-84.516545,38.037988],[-84.51623,38.03819],[-84.515717,38.038512],[-84.515499,38.038658],[-84.515381,38.038736],[-84.515239,38.038831],[-84.515123,38.038905],[-84.515048,38.038985],[-84.514893,38.039085],[-84.514826,38.039128],[-84.5144,38.039404],[-84.514278,38.039438],[-84.513921,38.039658],[-84.51349,38.039925],[-84.513374,38.039999],[-84.51321,38.040124],[-84.513115,38.04019],[-84.513052,38.040252],[-84.513006,38.040298],[-84.512968,38.04034],[-84.512901,38.040412],[-84.512837,38.040491],[-84.512766,38.04058],[-84.5127,38.040655],[-84.512648,38.040716],[-84.512496,38.040904],[-84.512438,38.040977],[-84.5123,38.041125],[-84.512232,38.041197],[-84.512071,38.041322],[-84.511938,38.041403],[-84.511663,38.04157],[-84.511453,38.041687],[-84.509143,38.042779],[-84.509016,38.042762],[-84.508849,38.042848],[-84.508689,38.042927],[-84.508245,38.043144],[-84.508117,38.043208],[-84.5079,38.043338],[-84.507751,38.04343],[-84.507449,38.043627],[-84.507388,38.043668],[-84.507288,38.043739],[-84.507169,38.043807],[-84.507102,38.043849],[-84.506943,38.043954],[-84.506818,38.044038],[-84.506544,38.044222],[-84.506244,38.04444],[-84.506187,38.044487],[-84.50609,38.044551],[-84.506011,38.044604],[-84.505625,38.044862],[-84.505252,38.045111],[-84.505238,38.045161],[-84.50519,38.045197],[-84.504486,38.04569],[-84.504299,38.045821],[-84.504214,38.045881],[-84.504136,38.045935],[-84.504091,38.045967],[-84.504002,38.04603],[-84.50393,38.046081],[-84.503813,38.046165],[-84.503684,38.046256],[-84.503602,38.046314],[-84.50355,38.046352],[-84.503272,38.046549],[-84.503203,38.046598],[-84.502763,38.046911],[-84.502692,38.046963],[-84.502542,38.04707],[-84.50249,38.047107],[-84.502359,38.0472],[-84.502226,38.047295],[-84.502145,38.047353],[-84.501866,38.047551],[-84.501818,38.047585],[-84.501719,38.047656],[-84.501656,38.047701]]]}},{"type":"Feature","id":"southside","properties":{"id":"southside","label":"Southside","category":"retail"},"geometry":{"type":"Polygon","coordinates":[[[-84.512485,38.023087],[-84.512369,38.023039],[-84.511989,38.022888],[-84.511268,38.022571],[-84.511147,38.022493],[-84.510142,38.022045],[-84.509921,38.021948],[-84.509806,38.021885],[-84.509756,38.021825],[-84.509713,38.021738],[-84.509692,38.021676],[-84.509644,38.021623],[-84.509577,38.021586],[-84.509494,38.021562],[-84.509416,38.021576],[-84.50931,38.021587],[-84.509198,38.021578],[-84.509055,38.021542],[-84.508816,38.021429],[-84.508629,38.02134],[-84.508243,38.021154],[-84.508146,38.021105],[-84.507901,38.02099],[-84.507602,38.020832],[-84.507395,38.020705],[-84.507226,38.020575],[-84.507006,38.02039],[-84.506797,38.020175],[-84.506553,38.019841],[-84.506383,38.019628],[-84.506179,38.019422],[-84.50587,38.019155],[-84.505669,38.018966],[-84.505653,38.018912],[-84.505643,38.018867],[-84.505642,38.018821],[-84.505646,38.018797],[-84.505642,38.018749],[-84.505622,38.018705],[-84.505589,38.018665],[-84.505545,38.018633],[-84.505492,38.018612],[-84.505409,38.0186],[-84.505326,38.018573],[-84.505228,38.018536],[-84.505161,38.0185],[-84.504961,38.01833],[-84.504879,38.018253],[-84.5047,38.018086],[-84.504459,38.017864],[-84.504409,38.01782],[-84.504197,38.01763],[-84.504051,38.017523],[-84.503917,38.017438],[-84.50381,38.017381],[-84.503555,38.017258],[-84.50305,38.017097],[-84.50284,38.01704],[-84.502234,38.016875],[-84.502057,38.016829],[-84.501663,38.016721],[-84.501501,38.016674],[-84.501394,38.016646],[-84.501227,38.016601],[-84.50101,38.016525],[-84.500847,38.016456],[-84.500703,38.016365],[-84.500582,38.016265],[-84.500397,38.016074],[-84.500038,38.015695],[-84.499772,38.015407],[-84.499389,38.014996],[-84.499186,38.014787],[-84.499014,38.014607],[-84.498894,38.014507],[-84.498863,38.014473],[-84.498732,38.014364],[-84.49856,38.014261],[-84.498369,38.014174],[-84.497849,38.014015],[-84.497313,38.013875],[-84.497084,38.013856],[-84.49678,38.013812],[-84.496378,38.013743],[-84.496176,38.013695],[-84.495794,38.013588],[-84.49558,38.013523],[-84.495396,38.013458],[-84.495315,38.01343],[-84.495323,38.013329],[-84.49534,38.013123],[-84.495357,38.012894],[-84.495397,38.012482],[-84.495443,38.012134],[-84.495457,38.01205],[-84.49551,38.01173],[-84.49556,38.011446],[-84.495671,38.010819],[-84.495858,38.009759],[-84.495906,38.00949],[-84.495943,38.009218],[-84.495977,38.0089],[-84.495996,38.008576],[-84.496001,38.008293],[-84.496002,38.008217],[-84.496003,38.008065],[-84.496011,38.007089],[-84.496013,38.006834],[-84.496006,38.006207],[-84.496,38.005642],[-84.496,38.005569],[-84.495996,38.005235],[-84.495994,38.005065],[-84.495991,38.004731],[-84.495986,38.004217],[-84.49598,38.003688],[-84.495982,38.00352],[-84.495984,38.003399],[-84.495981,38.003287],[-84.495961,38.002541],[-84.495957,38.002217],[-84.495939,38.001252],[-84.495929,38.000682],[-84.495928,38.000663],[-84.495912,37.999787],[-84.49591,37.999667],[-84.495906,37.999532],[-84.495907,37.999485],[-84.495907,37.999459],[-84.495869,37.998635],[-84.495847,37.998167],[-84.495836,37.997923],[-84.495794,37.997463],[-84.495779,37.997301],[-84.495758,37.99709],[-84.495752,37.997033],[-84.495736,37.996878],[-84.495693,37.996455],[-84.49561,37.995639],[-84.495588,37.995433],[-84.495571,37.995318],[-84.495527,37.995017],[-84.495422,37.994303],[-84.495315,37.99357],[-84.495243,37.993079],[-84.495173,37.992542],[-84.495127,37.992189],[-84.495064,37.991832],[-84.495049,37.991726],[-84.494904,37.990516],[-84.4949,37.990346],[-84.49483,37.989781],[-84.494733,37.989085],[-84.494686,37.988747],[-84.494666,37.988587],[-84.49462,37.988209],[-84.494577,37.98797],[-84.494507,37.987496],[-84.494487,37.987398],[-84.494446,37.987201],[-84.494406,37.987008],[-84.494314,37.986533],[-84.49431,37.986514],[-84.494301,37.986467],[-84.494281,37.986365],[-84.494247,37.986168],[-84.494166,37.985712],[-84.49415,37.985588],[-84.494139,37.985449],[-84.494132,37.985371],[-84.494132,37.985025],[-84.494143,37.984833],[-84.494159,37.984707],[-84.494174,37.984608],[-84.494216,37.984383],[-84.494266,37.984166],[-84.494325,37.983963],[-84.494374,37.98382],[-84.494531,37.983434],[-84.494645,37.98321],[-84.494731,37.983056],[-84.494746,37.983033],[-84.494797,37.982951],[-84.494878,37.982832],[-84.494893,37.982811],[-84.495045,37.982615],[-84.495202,37.982427],[-84.495387,37.982232],[-84.495715,37.981928],[-84.495912,37.981746],[-84.495816,37.981682],[-84.496043,37.981476],[-84.496312,37.981237],[-84.496568,37.980999],[-84.496575,37.980992],[-84.496931,37.980661],[-84.497188,37.980386],[-84.497299,37.980251],[-84.497416,37.9801],[-84.497617,37.979809],[-84.497737,37.979615],[-84.497845,37.979415],[-84.49795,37.979202],[-84.49796,37.979179],[-84.498037,37.978998],[-84.498109,37.978789],[-84.498165,37.978592],[-84.498223,37.978362],[-84.498271,37.978125],[-84.498317,37.97781],[-84.498329,37.977671],[-84.498333,37.977475],[-84.498329,37.977255],[-84.49831,37.977039],[-84.498282,37.976807],[-84.498196,37.976272],[-84.498095,37.975689],[-84.498093,37.975677],[-84.498052,37.975455],[-84.498051,37.975445],[-84.49784,37.974257],[-84.497838,37.974247],[-84.497805,37.974093],[-84.497788,37.973978],[-84.497776,37.973912],[-84.497536,37.972705],[-84.497443,37.972286],[-84.497307,37.97174],[-84.497283,37.971639],[-84.496868,37.969906],[-84.496849,37.969832],[-84.496821,37.969725],[-84.496945,37.969712],[-84.497095,37.969696],[-84.497693,37.969634],[-84.498097,37.969578],[-84.49845,37.96951],[-84.498882,37.969392],[-84.499066,37.969331],[-84.49982,37.969036],[-84.500833,37.968599],[-84.500966,37.968545],[-84.50135,37.968403],[-84.501539,37.968342],[-84.501797,37.968274],[-84.502054,37.968217],[-84.502364,37.968162],[-84.502506,37.968137],[-84.502691,37.968117],[-84.503092,37.968073],[-84.503636,37.968014],[-84.503648,37.968013],[-84.504152,37.967958],[-84.504165,37.967957],[-84.504783,37.967889],[-84.505362,37.96783],[-84.505527,37.967813],[-84.505832,37.967791],[-84.506088,37.967787],[-84.50652,37.967801],[-84.506686,37.967817],[-84.506957,37.96785],[-84.50719,37.967899],[-84.507474,37.96797],[-84.507683,37.968038],[-84.507854,37.968101],[-84.508022,37.968171],[-84.508186,37.968245],[-84.50847,37.9684],[-84.508617,37.968491],[-84.508922,37.968714],[-84.509264,37.969001],[-84.5098,37.969472],[-84.510639,37.970245],[-84.510708,37.970308],[-84.510793,37.970385],[-84.510847,37.970435],[-84.510875,37.970459],[-84.511707,37.971192],[-84.512065,37.971499],[-84.512228,37.971624],[-84.512419,37.971759],[-84.512582,37.971859],[-84.512601,37.97187],[-84.512781,37.97197],[-84.513025,37.97209],[-84.513283,37.972196],[-84.513557,37.972289],[-84.513846,37.972368],[-84.514105,37.972421],[-84.514463,37.972473],[-84.514489,37.972476],[-84.51464,37.97249],[-84.514836,37.972498],[-84.515285,37.972502],[-84.516276,37.972433],[-84.517826,37.972315],[-84.518142,37.972299],[-84.518446,37.972293],[-84.518825,37.972314],[-84.519099,37.972325],[-84.519361,37.972358],[-84.519632,37.972406],[-84.519855,37.972455],[-84.520101,37.972515],[-84.520312,37.972581],[-84.520582,37.972672],[-84.520799,37.972754],[-84.521577,37.973049],[-84.522433,37.973379],[-84.52301,37.973601],[-84.523062,37.973621],[-84.523248,37.973689],[-84.524023,37.973992],[-84.525938,37.974729],[-84.527001,37.975138],[-84.529075,37.975936],[-84.529748,37.976191],[-84.529988,37.976293],[-84.530068,37.976329],[-84.53113,37.976722],[-84.532543,37.977265],[-84.533554,37.977634],[-84.533874,37.977751],[-84.534034,37.977815],[-84.534111,37.977846],[-84.535619,37.978445],[-84.535948,37.978575],[-84.536168,37.97866],[-84.536608,37.978828],[-84.53978,37.980046],[-84.540086,37.980154],[-84.540539,37.980298],[-84.540799,37.980366],[-84.540833,37.980375],[-84.541063,37.98043],[-84.541296,37.980478],[-84.541656,37.980534],[-84.542172,37.980593],[-84.542422,37.980606],[-84.543046,37.980617],[-84.543128,37.980617],[-84.54329,37.980616],[-84.543459,37.980612],[-84.543521,37.98061],[-84.544651,37.980605],[-84.545042,37.980609],[-84.545599,37.980627],[-84.545782,37.980642],[-84.546233,37.980697],[-84.546487,37.980736],[-84.546737,37.980786],[-84.546984,37.980841],[-84.547221,37.980903],[-84.547412,37.980958],[-84.547588,37.981015],[-84.547954,37.981147],[-84.548731,37.981447],[-84.550166,37.982008],[-84.550278,37.982052],[-84.550418,37.982106],[-84.553199,37.983172],[-84.553698,37.983344],[-84.553958,37.983427],[-84.554362,37.983548],[-84.55463,37.983619],[-84.555314,37.983778],[-84.555568,37.983832],[-84.555999,37.983917],[-84.556565,37.98402],[-84.556713,37.984048],[-84.55772,37.984242],[-84.55785,37.984267],[-84.558103,37.98433],[-84.55838,37.984405],[-84.558617,37.984478],[-84.55883,37.984553],[-84.55908,37.98465],[-84.559344,37.984759],[-84.559596,37.98488],[-84.559829,37.985004],[-84.560161,37.985199],[-84.560191,37.985217],[-84.561836,37.986244],[-84.56217,37.986439],[-84.562571,37.986657],[-84.563103,37.986911],[-84.563268,37.986989],[-84.563162,37.987074],[-84.563,37.987204],[-84.562813,37.987351],[-84.562582,37.987531],[-84.562277,37.987753],[-84.562156,37.987837],[-84.56162,37.988231],[-84.561358,37.988442],[-84.561312,37.988476],[-84.561186,37.988591],[-84.561042,37.988734],[-84.560694,37.989123],[-84.560201,37.989696],[-84.55994,37.989987],[-84.559841,37.990086],[-84.559752,37.990161],[-84.559663,37.990228],[-84.559567,37.990282],[-84.559456,37.990337],[-84.55929,37.990401],[-84.559026,37.990496],[-84.558416,37.990682],[-84.557977,37.990808],[-84.556842,37.991111],[-84.556743,37.991148],[-84.556568,37.991222],[-84.554362,37.992292],[-84.554223,37.992368],[-84.553856,37.992608],[-84.553473,37.992885],[-84.552977,37.993266],[-84.552772,37.993416],[-84.552579,37.993548],[-84.552526,37.993584],[-84.552487,37.99361],[-84.552386,37.993679],[-84.552073,37.993849],[-84.551656,37.994052],[-84.551221,37.994231],[-84.551002,37.994311],[-84.550753,37.994388],[-84.550302,37.994558],[-84.550146,37.994625],[-84.549891,37.994755],[-84.549761,37.994838],[-84.549655,37.994916],[-84.549533,37.995022],[-84.549427,37.995146],[-84.549346,37.995255],[-84.54924,37.99541],[-84.549197,37.995472],[-84.549148,37.995557],[-84.548787,37.996186],[-84.548641,37.996433],[-84.548546,37.996597],[-84.548333,37.996951],[-84.547994,37.997543],[-84.547266,37.99872],[-84.546684,37.999669],[-84.546537,37.999913],[-84.54625,38.000358],[-84.546016,38.000729],[-84.545891,38.000814],[-84.545782,38.000977],[-84.545564,38.001314],[-84.545497,38.001416],[-84.545462,38.001473],[-84.545404,38.001567],[-84.5451,38.002077],[-84.545072,38.002236],[-84.544788,38.002758],[-84.54471,38.002906],[-84.544416,38.003455],[-84.544259,38.003756],[-84.54409,38.004049],[-84.54394,38.004298],[-84.543906,38.004352],[-84.54355,38.004938],[-84.543298,38.005433],[-84.54322,38.005575],[-84.543067,38.005853],[-84.542935,38.006095],[-84.542694,38.006536],[-84.542309,38.007241],[-84.542283,38.007291],[-84.542123,38.007583],[-84.541917,38.007939],[-84.541892,38.007982],[-84.541653,38.008423],[-84.541616,38.008492],[-84.541574,38.00857],[-84.54154,38.008633],[-84.541339,38.008999],[-84.541222,38.009183],[-84.541125,38.009304],[-84.54085,38.009594],[-84.540474,38.009977],[-84.539511,38.011016],[-84.539235,38.011499],[-84.538769,38.012313],[-84.538686,38.012451],[-84.538333,38.013004],[-84.538284,38.013073],[-84.538207,38.013164],[-84.53816,38.013217],[-84.53812,38.013261],[-84.53792,38.013484],[-84.53775,38.013678],[-84.537624,38.013822],[-84.537566,38.013898],[-84.537486,38.014002],[-84.53739,38.014145],[-84.537336,38.014241],[-84.537211,38.014487],[-84.536978,38.014976],[-84.536761,38.015467],[-84.536355,38.016386],[-84.536236,38.016643],[-84.536174,38.016767],[-84.53588,38.017357],[-84.535816,38.017482],[-84.535794,38.017525],[-84.535635,38.017835],[-84.535601,38.017902],[-84.535511,38.018068],[-84.53543,38.018125],[-84.535354,38.018269],[-84.535286,38.018397],[-84.535265,38.018507],[-84.535206,38.018603],[-84.534998,38.018947],[-84.534969,38.018997],[-84.534528,38.019716],[-84.534017,38.020618],[-84.53341,38.02164],[-84.533125,38.022181],[-84.533007,38.02238],[-84.532858,38.022627],[-84.532785,38.022767],[-84.532534,38.023224],[-84.532343,38.023599],[-84.532275,38.023738],[-84.532209,38.023858],[-84.532049,38.02379],[-84.531591,38.02359],[-84.531485,38.023544],[-84.531296,38.023463],[-84.531173,38.02341],[-84.530787,38.023242],[-84.529933,38.022858],[-84.529474,38.022655],[-84.528955,38.022426],[-84.528913,38.022408],[-84.528758,38.022341],[-84.528627,38.022275],[-84.528526,38.022224],[-84.528507,38.022215],[-84.528466,38.022196],[-84.528308,38.02212],[-84.528155,38.022047],[-84.528113,38.022031],[-84.527902,38.021926],[-84.527855,38.021904],[-84.527437,38.021696],[-84.526941,38.02145],[-84.526876,38.021418],[-84.52684,38.0214],[-84.525845,38.020911],[-84.525787,38.020882],[-84.525192,38.020589],[-84.525074,38.020533],[-84.524924,38.020463],[-84.524758,38.020384],[-84.524424,38.020242],[-84.524115,38.020128],[-84.523956,38.020074],[-84.523904,38.020057],[-84.523382,38.019876],[-84.52246,38.01956],[-84.521869,38.019351],[-84.521478,38.019218],[-84.521282,38.019148],[-84.521236,38.019132],[-84.519478,38.01855],[-84.519303,38.018491],[-84.517404,38.017849],[-84.516703,38.017614],[-84.516542,38.01756],[-84.51593,38.017355],[-84.51567,38.017268],[-84.515318,38.017154],[-84.514872,38.017009],[-84.514758,38.016972],[-84.514656,38.016939],[-84.514607,38.017075],[-84.514573,38.017177],[-84.514556,38.017225],[-84.514543,38.017266],[-84.514465,38.017482],[-84.514397,38.017666],[-84.514312,38.017901],[-84.514302,38.017931],[-84.514147,38.018382],[-84.514116,38.01847],[-84.514058,38.018642],[-84.513999,38.018808],[-84.513963,38.018912],[-84.51392,38.019033],[-84.513901,38.019094],[-84.513853,38.01923],[-84.513829,38.019301],[-84.513813,38.019349],[-84.513782,38.019436],[-84.513715,38.019627],[-84.513673,38.019746],[-84.513614,38.019913],[-84.513496,38.020249],[-84.513469,38.020324],[-84.513421,38.020453],[-84.513395,38.020538],[-84.513328,38.020735],[-84.513288,38.02085],[-84.513248,38.020968],[-84.51318,38.021148],[-84.51311,38.021332],[-84.512893,38.021912],[-84.512858,38.021999],[-84.512781,38.022221],[-84.512731,38.022364],[-84.512654,38.022584],[-84.512603,38.022733],[-84.512566,38.022839],[-84.512551,38.022884],[-84.512485,38.023087]]]}},{"type":"Feature","id":"redmile","properties":{"id":"redmile","label":"Red Mile","category":"retail"},"geometry":{"type":"Polygon","coordinates":[[[-84.551344,38.015693],[-84.551418,38.015956],[-84.551511,38.016247],[-84.551834,38.017407],[-84.552304,38.01906],[-84.552356,38.019233],[-84.552427,38.019439],[-84.552557,38.019779],[-84.552586,38.019867],[-84.552726,38.020165],[-84.552887,38.020481],[-84.553062,38.02079],[-84.553208,38.02103],[-84.553315,38.021188],[-84.553574,38.02155],[-84.553779,38.021814],[-84.554019,38.022091],[-84.554271,38.022366],[-84.554341,38.022435],[-84.554592,38.022681],[-84.554938,38.022977],[-84.555203,38.023205],[-84.555368,38.023332],[-84.555576,38.023492],[-84.555809,38.023666],[-84.55687,38.02444],[-84.55747,38.024887],[-84.557792,38.025118],[-84.559239,38.026179],[-84.559685,38.02653],[-84.559994,38.026777],[-84.560112,38.026872],[-84.560167,38.026916],[-84.560789,38.027466],[-84.560839,38.02751],[-84.561376,38.028044],[-84.5618,38.028496],[-84.562194,38.028947],[-84.564192,38.031322],[-84.564552,38.031759],[-84.564814,38.032058],[-84.56534,38.032687],[-84.566509,38.034069],[-84.566795,38.034428],[-84.567208,38.034992],[-84.567349,38.035222],[-84.567412,38.035344],[-84.567573,38.03566],[-84.567881,38.036348],[-84.567996,38.036679],[-84.568086,38.036998],[-84.568181,38.037457],[-84.568231,38.037791],[-84.568251,38.037998],[-84.568265,38.038141],[-84.568283,38.038516],[-84.56827,38.038953],[-84.568244,38.0393],[-84.568211,38.039542],[-84.568182,38.03971],[-84.568108,38.04007],[-84.568027,38.040376],[-84.567954,38.040612],[-84.567823,38.040987],[-84.567644,38.041392],[-84.566,38.045122],[-84.566175,38.044832],[-84.566261,38.044704],[-84.566364,38.044575],[-84.566451,38.044481],[-84.566564,38.044372],[-84.566692,38.044286],[-84.56681,38.04423],[-84.566954,38.04419],[-84.567086,38.044176],[-84.567241,38.044181],[-84.567379,38.044216],[-84.567491,38.044258],[-84.567644,38.044338],[-84.567736,38.044425],[-84.5678,38.044503],[-84.567845,38.044584],[-84.567868,38.044681],[-84.567875,38.04478],[-84.567859,38.04489],[-84.567823,38.044992],[-84.567754,38.04509],[-84.567668,38.045178],[-84.567575,38.045243],[-84.567459,38.045305],[-84.567342,38.045329],[-84.567218,38.045341],[-84.566023,38.045466],[-84.565434,38.0455],[-84.565347,38.045501],[-84.565269,38.045498],[-84.565171,38.045483],[-84.56507,38.045448],[-84.564708,38.045307],[-84.564553,38.045247],[-84.564442,38.045215],[-84.564336,38.045196],[-84.564223,38.045186],[-84.56411,38.045197],[-84.563988,38.045214],[-84.563879,38.045243],[-84.5638,38.045279],[-84.563675,38.045365],[-84.563431,38.045467],[-84.563316,38.045551],[-84.563165,38.045636],[-84.563022,38.045698],[-84.562866,38.045743],[-84.562709,38.045778],[-84.56113,38.045995],[-84.561009,38.046009],[-84.560544,38.046062],[-84.560453,38.046073],[-84.560047,38.046165],[-84.559979,38.04617],[-84.55945,38.046208],[-84.55917,38.046228],[-84.558916,38.046247],[-84.55724,38.04638],[-84.555951,38.046484],[-84.555814,38.046494],[-84.555103,38.046543],[-84.554877,38.046559],[-84.55426,38.046602],[-84.553985,38.046625],[-84.553656,38.046653],[-84.553438,38.046671],[-84.553395,38.046674],[-84.553205,38.04669],[-84.553047,38.046704],[-84.552822,38.046723],[-84.552725,38.046731],[-84.552602,38.046741],[-84.552488,38.046751],[-84.552205,38.046774],[-84.551943,38.046796],[-84.551313,38.046844],[-84.55111,38.04687],[-84.550981,38.046883],[-84.550783,38.046899],[-84.550264,38.046941],[-84.549426,38.047008],[-84.548948,38.047041],[-84.547968,38.047109],[-84.546317,38.047243],[-84.545056,38.047347],[-84.544852,38.047363],[-84.54418,38.047432],[-84.543415,38.04751],[-84.543281,38.047481],[-84.543076,38.047508],[-84.542737,38.047553],[-84.542444,38.047592],[-84.542385,38.047641],[-84.542064,38.047676],[-84.54191,38.047694],[-84.541588,38.047733],[-84.541534,38.04774],[-84.541224,38.047778],[-84.541,38.047805],[-84.540298,38.047891],[-84.539978,38.04793],[-84.539709,38.047963],[-84.539399,38.048001],[-84.539278,38.048015],[-84.539094,38.048038],[-84.538872,38.048064],[-84.538809,38.048072],[-84.538784,38.048075],[-84.538516,38.048107],[-84.538101,38.048157],[-84.537809,38.048192],[-84.53659,38.048339],[-84.536214,38.048383],[-84.535816,38.04843],[-84.535566,38.04846],[-84.535422,38.048478],[-84.535177,38.048509],[-84.53426,38.048619],[-84.533973,38.048654],[-84.533751,38.048681],[-84.533661,38.048692],[-84.533211,38.048747],[-84.53277,38.048797],[-84.532443,38.04884],[-84.532177,38.048875],[-84.531723,38.048931],[-84.530795,38.049036],[-84.530392,38.049082],[-84.529656,38.049166],[-84.529467,38.049187],[-84.529423,38.049192],[-84.529385,38.049196],[-84.529178,38.04922],[-84.529114,38.049227],[-84.528818,38.049253],[-84.528645,38.049269],[-84.528241,38.049312],[-84.528135,38.049322],[-84.527719,38.049362],[-84.52766,38.049368],[-84.527225,38.04941],[-84.527049,38.049427],[-84.526742,38.049454],[-84.526442,38.049481],[-84.526401,38.049485],[-84.52636,38.049489],[-84.526122,38.04951],[-84.52604,38.049517],[-84.525446,38.04957],[-84.524321,38.049684],[-84.524051,38.049711],[-84.523979,38.049718],[-84.52323,38.049794],[-84.522948,38.049825],[-84.522511,38.049872],[-84.522255,38.049885],[-84.522021,38.049896],[-84.521763,38.049909],[-84.521747,38.04991],[-84.521586,38.049918],[-84.52138,38.049928],[-84.521216,38.049935],[-84.520906,38.049948],[-84.520357,38.04997],[-84.519988,38.049986],[-84.519382,38.050011],[-84.51916,38.05002],[-84.519,38.050027],[-84.518728,38.050038],[-84.518642,38.05004],[-84.518479,38.050045],[-84.518315,38.05005],[-84.518121,38.050055],[-84.517514,38.050074],[-84.517451,38.050074],[-84.516987,38.050074],[-84.516238,38.050073],[-84.515796,38.050098],[-84.515511,38.050137],[-84.515489,38.050141],[-84.515174,38.050198],[-84.51508,38.050214],[-84.514965,38.050233],[-84.514856,38.050252],[-84.514791,38.050261],[-84.51455,38.050295],[-84.514403,38.050316],[-84.514233,38.050335],[-84.513987,38.050362],[-84.513628,38.050395],[-84.512813,38.05045],[-84.512085,38.0505],[-84.511212,38.050556],[-84.510627,38.050593],[-84.510248,38.050618],[-84.510062,38.050627],[-84.509912,38.050629],[-84.509961,38.050464],[-84.510065,38.050087],[-84.510084,38.049824],[-84.510095,38.049553],[-84.510109,38.049176],[-84.510124,38.048784],[-84.510128,38.048541],[-84.510086,38.048271],[-84.51002,38.047999],[-84.509907,38.047716],[-84.509691,38.047247],[-84.509623,38.047107],[-84.509521,38.046892],[-84.509456,38.046743],[-84.509391,38.046614],[-84.509204,38.046199],[-84.509019,38.045773],[-84.508997,38.045723],[-84.508757,38.045231],[-84.50862,38.045006],[-84.508476,38.044801],[-84.508237,38.044525],[-84.507825,38.044133],[-84.507562,38.043885],[-84.507521,38.043855],[-84.507398,38.043794],[-84.507288,38.043739],[-84.507388,38.043668],[-84.507449,38.043627],[-84.507751,38.04343],[-84.5079,38.043338],[-84.508117,38.043208],[-84.508245,38.043144],[-84.508689,38.042927],[-84.508849,38.042848],[-84.509016,38.042762],[-84.509143,38.042779],[-84.511453,38.041687],[-84.511663,38.04157],[-84.511938,38.041403],[-84.512071,38.041322],[-84.512232,38.041197],[-84.5123,38.041125],[-84.512438,38.040977],[-84.512496,38.040904],[-84.512648,38.040716],[-84.5127,38.040655],[-84.512766,38.04058],[-84.512837,38.040491],[-84.512901,38.040412],[-84.512968,38.04034],[-84.513006,38.040298],[-84.513052,38.040252],[-84.513115,38.04019],[-84.51321,38.040124],[-84.513374,38.039999],[-84.51349,38.039925],[-84.513921,38.039658],[-84.514278,38.039438],[-84.5144,38.039404],[-84.514826,38.039128],[-84.514893,38.039085],[-84.515048,38.038985],[-84.515123,38.038905],[-84.515239,38.038831],[-84.515381,38.038736],[-84.515499,38.038658],[-84.515717,38.038512],[-84.51623,38.03819],[-84.516545,38.037988],[-84.516885,38.037778],[-84.516947,38.037739],[-84.517037,38.037682],[-84.517204,38.037577],[-84.517424,38.037439],[-84.517848,38.037172],[-84.518028,38.037059],[-84.518177,38.036965],[-84.518181,38.036963],[-84.518262,38.036912],[-84.518327,38.03686],[-84.518406,38.036796],[-84.518578,38.036656],[-84.51877,38.036535],[-84.518916,38.036442],[-84.519064,38.036348],[-84.519219,38.03625],[-84.519458,38.036096],[-84.519493,38.036077],[-84.519672,38.035963],[-84.519822,38.035868],[-84.519959,38.035781],[-84.52007,38.03571],[-84.520203,38.035625],[-84.520435,38.035477],[-84.520979,38.035129],[-84.521329,38.034914],[-84.521473,38.034826],[-84.521738,38.034664],[-84.521852,38.034593],[-84.522188,38.034396],[-84.522467,38.034231],[-84.522545,38.034183],[-84.522783,38.034045],[-84.522931,38.03396],[-84.523185,38.033809],[-84.523292,38.033742],[-84.523363,38.0337],[-84.523529,38.033592],[-84.523614,38.03353],[-84.5237,38.033479],[-84.523913,38.033364],[-84.524099,38.033264],[-84.525031,38.03271],[-84.525357,38.032517],[-84.525612,38.032365],[-84.525733,38.032293],[-84.525855,38.032219],[-84.52605,38.0321],[-84.526171,38.032027],[-84.526206,38.032006],[-84.52633,38.031932],[-84.526521,38.031819],[-84.52685,38.031624],[-84.527055,38.031502],[-84.527185,38.031425],[-84.527284,38.031366],[-84.527765,38.031081],[-84.528103,38.030881],[-84.528278,38.030777],[-84.528471,38.03067],[-84.528759,38.030492],[-84.528942,38.030378],[-84.529009,38.030336],[-84.529086,38.030286],[-84.52919,38.030219],[-84.529518,38.030001],[-84.529871,38.02974],[-84.530089,38.029585],[-84.530149,38.029542],[-84.530398,38.02937],[-84.530659,38.029188],[-84.530808,38.029085],[-84.530947,38.028989],[-84.531644,38.028507],[-84.531766,38.028423],[-84.531869,38.02835],[-84.532353,38.028007],[-84.532482,38.027916],[-84.532831,38.02771],[-84.532955,38.027636],[-84.533066,38.02757],[-84.533169,38.027509],[-84.533306,38.027428],[-84.533314,38.027424],[-84.533716,38.027185],[-84.533979,38.027029],[-84.534229,38.026881],[-84.534336,38.026817],[-84.53456,38.026693],[-84.534666,38.026634],[-84.534715,38.026602],[-84.534802,38.026562],[-84.534907,38.026508],[-84.535015,38.026454],[-84.535138,38.026392],[-84.535447,38.026225],[-84.535571,38.026158],[-84.535609,38.026138],[-84.535683,38.026101],[-84.53585,38.026018],[-84.536086,38.0259],[-84.536207,38.025839],[-84.536443,38.025716],[-84.537377,38.025227],[-84.537481,38.025173],[-84.537539,38.025143],[-84.537631,38.025095],[-84.53777,38.025023],[-84.538307,38.024741],[-84.538589,38.024592],[-84.539122,38.024327],[-84.53953,38.024102],[-84.539642,38.02404],[-84.539732,38.023978],[-84.540141,38.023691],[-84.540394,38.023479],[-84.540835,38.02313],[-84.540993,38.023006],[-84.541263,38.022795],[-84.541338,38.022736],[-84.54282,38.021573],[-84.543662,38.020908],[-84.544076,38.020581],[-84.544247,38.020443],[-84.544611,38.020148],[-84.545169,38.019697],[-84.545524,38.01941],[-84.545613,38.019337],[-84.545689,38.019279],[-84.546595,38.018585],[-84.5469,38.018355],[-84.547331,38.018029],[-84.547509,38.017894],[-84.547536,38.017873],[-84.547581,38.017843],[-84.547996,38.017567],[-84.548288,38.017379],[-84.548522,38.017217],[-84.548638,38.01714],[-84.549128,38.016836],[-84.549372,38.016682],[-84.5497,38.016476],[-84.549849,38.016382],[-84.549981,38.016317],[-84.550099,38.016291],[-84.550277,38.016261],[-84.55043,38.016235],[-84.550562,38.016192],[-84.550685,38.016131],[-84.550813,38.016023],[-84.550904,38.015963],[-84.550995,38.015904],[-84.551344,38.015693]]]}},{"type":"Feature","id":"westend","properties":{"id":"westend","label":"West End","category":"industrial"},"geometry":{"type":"Polygon","coordinates":[[[-84.565788,38.045618],[-84.565758,38.045684],[-84.565632,38.045916],[-84.565361,38.046445],[-84.565113,38.046911],[-84.564662,38.047704],[-84.564397,38.04813],[-84.563834,38.048991],[-84.563155,38.049901],[-84.562582,38.050639],[-84.562053,38.051271],[-84.561563,38.051813],[-84.56127,38.052127],[-84.560605,38.052816],[-84.560133,38.053275],[-84.559803,38.053575],[-84.558946,38.054332],[-84.558438,38.054741],[-84.557857,38.055208],[-84.55711,38.055767],[-84.556947,38.055882],[-84.556586,38.056139],[-84.556144,38.056446],[-84.556078,38.056493],[-84.555263,38.057013],[-84.554624,38.057402],[-84.554243,38.057626],[-84.553234,38.058179],[-84.552815,38.0584],[-84.552316,38.058655],[-84.551965,38.058827],[-84.551117,38.059227],[-84.550032,38.059695],[-84.549189,38.060038],[-84.548656,38.060228],[-84.546664,38.060952],[-84.546207,38.061132],[-84.545367,38.061442],[-84.544302,38.061818],[-84.54248,38.062471],[-84.542045,38.062638],[-84.541559,38.06283],[-84.541108,38.063014],[-84.540638,38.063221],[-84.540301,38.063381],[-84.539973,38.063556],[-84.539656,38.063735],[-84.53943,38.063857],[-84.539257,38.063963],[-84.538479,38.064483],[-84.538183,38.064719],[-84.537832,38.064986],[-84.537671,38.065125],[-84.537624,38.065165],[-84.537197,38.065512],[-84.536811,38.065863],[-84.533165,38.06903],[-84.531361,38.070587],[-84.530988,38.070909],[-84.529187,38.072481],[-84.528613,38.072992],[-84.528448,38.07313],[-84.528082,38.073448],[-84.527884,38.07362],[-84.5276,38.073839],[-84.527407,38.073977],[-84.527186,38.074119],[-84.52648,38.074523],[-84.526114,38.074689],[-84.525568,38.074891],[-84.525288,38.074978],[-84.524707,38.075131],[-84.524315,38.0752],[-84.523891,38.07526],[-84.523456,38.075296],[-84.523014,38.07531],[-84.52265,38.075299],[-84.521228,38.075192],[-84.520204,38.075104],[-84.518709,38.074979],[-84.518023,38.074911],[-84.511359,38.074342],[-84.511096,38.074319],[-84.510678,38.074293],[-84.509987,38.074262],[-84.509506,38.074258],[-84.508957,38.074272],[-84.5083,38.074314],[-84.507502,38.074395],[-84.507035,38.074463],[-84.505471,38.07473],[-84.503848,38.074998],[-84.503291,38.075074],[-84.502881,38.075124],[-84.502623,38.07516],[-84.50216,38.075204],[-84.501741,38.075224],[-84.500962,38.07524],[-84.500718,38.075245],[-84.499763,38.075221],[-84.499543,38.075203],[-84.498999,38.07516],[-84.498731,38.075131],[-84.498222,38.075077],[-84.495336,38.074652],[-84.495855,38.074795],[-84.496013,38.074839],[-84.496126,38.074887],[-84.496233,38.074946],[-84.49632,38.075009],[-84.496397,38.075081],[-84.496455,38.075164],[-84.496492,38.075237],[-84.496518,38.075328],[-84.496519,38.075415],[-84.496513,38.075511],[-84.496487,38.075588],[-84.496445,38.075669],[-84.496389,38.075742],[-84.496304,38.075817],[-84.496218,38.075873],[-84.496109,38.075923],[-84.495986,38.075955],[-84.495873,38.07597],[-84.495758,38.075972],[-84.495617,38.075953],[-84.495504,38.075918],[-84.495401,38.075875],[-84.495308,38.075818],[-84.495219,38.075734],[-84.495148,38.075629],[-84.495106,38.075525],[-84.495087,38.075412],[-84.495088,38.075281],[-84.49512,38.075122],[-84.495153,38.074932],[-84.495161,38.074912],[-84.495428,38.07427],[-84.495437,38.074248],[-84.495447,38.074224],[-84.495755,38.073469],[-84.495824,38.073307],[-84.496293,38.072182],[-84.496326,38.072105],[-84.496353,38.072041],[-84.496436,38.071848],[-84.496606,38.071451],[-84.496668,38.071308],[-84.496678,38.071281],[-84.496834,38.070858],[-84.49701,38.070489],[-84.497121,38.070215],[-84.497337,38.069697],[-84.497344,38.06968],[-84.497376,38.069602],[-84.497456,38.069409],[-84.497496,38.069317],[-84.497597,38.069071],[-84.497697,38.068842],[-84.497976,38.068202],[-84.498166,38.067766],[-84.498465,38.067046],[-84.498615,38.066689],[-84.498676,38.066537],[-84.498816,38.066197],[-84.499148,38.065334],[-84.499526,38.064434],[-84.499589,38.064285],[-84.500004,38.063186],[-84.50017,38.062738],[-84.500396,38.062065],[-84.500414,38.062014],[-84.500431,38.061963],[-84.500469,38.061842],[-84.500595,38.061441],[-84.500644,38.061287],[-84.500761,38.060911],[-84.500866,38.060577],[-84.500947,38.06032],[-84.50098,38.060207],[-84.501015,38.060086],[-84.501082,38.059869],[-84.501142,38.059664],[-84.50125,38.059349],[-84.501283,38.059253],[-84.501444,38.058827],[-84.501478,38.058738],[-84.501554,38.058539],[-84.501613,38.058393],[-84.501661,38.058265],[-84.501832,38.057847],[-84.50193,38.057639],[-84.502049,38.057436],[-84.502078,38.057393],[-84.502136,38.057318],[-84.5022,38.057245],[-84.502301,38.057142],[-84.502443,38.057025],[-84.502933,38.056667],[-84.503181,38.056492],[-84.503339,38.05638],[-84.503293,38.056292],[-84.503433,38.056193],[-84.50355,38.056113],[-84.503913,38.055851],[-84.504224,38.055617],[-84.504439,38.055425],[-84.504556,38.055302],[-84.505035,38.054791],[-84.505189,38.054632],[-84.505367,38.054461],[-84.505545,38.054295],[-84.505636,38.054215],[-84.505744,38.054119],[-84.505831,38.054206],[-84.505975,38.054098],[-84.506716,38.053483],[-84.507186,38.053092],[-84.507709,38.052662],[-84.508062,38.052381],[-84.508217,38.052263],[-84.508366,38.052161],[-84.508783,38.051879],[-84.509207,38.051553],[-84.50943,38.051336],[-84.509642,38.051101],[-84.509802,38.050836],[-84.509822,38.050799],[-84.509912,38.050629],[-84.510062,38.050627],[-84.510248,38.050618],[-84.510627,38.050593],[-84.511212,38.050556],[-84.512085,38.0505],[-84.512813,38.05045],[-84.513628,38.050395],[-84.513987,38.050362],[-84.514233,38.050335],[-84.514403,38.050316],[-84.51455,38.050295],[-84.514791,38.050261],[-84.514856,38.050252],[-84.514965,38.050233],[-84.51508,38.050214],[-84.515174,38.050198],[-84.515489,38.050141],[-84.515511,38.050137],[-84.515796,38.050098],[-84.516238,38.050073],[-84.516987,38.050074],[-84.517451,38.050074],[-84.517514,38.050074],[-84.518121,38.050055],[-84.518315,38.05005],[-84.518479,38.050045],[-84.518642,38.05004],[-84.518728,38.050038],[-84.519,38.050027],[-84.51916,38.05002],[-84.519382,38.050011],[-84.519988,38.049986],[-84.520357,38.04997],[-84.520906,38.049948],[-84.521216,38.049935],[-84.52138,38.049928],[-84.521586,38.049918],[-84.521747,38.04991],[-84.521763,38.049909],[-84.522021,38.049896],[-84.522255,38.049885],[-84.522511,38.049872],[-84.522948,38.049825],[-84.52323,38.049794],[-84.523979,38.049718],[-84.524051,38.049711],[-84.524321,38.049684],[-84.525446,38.04957],[-84.52604,38.049517],[-84.526122,38.04951],[-84.52636,38.049489],[-84.526401,38.049485],[-84.526442,38.049481],[-84.526742,38.049454],[-84.527049,38.049427],[-84.527225,38.04941],[-84.52766,38.049368],[-84.527719,38.049362],[-84.528135,38.049322],[-84.528241,38.049312],[-84.528645,38.049269],[-84.528818,38.049253],[-84.529114,38.049227],[-84.529178,38.04922],[-84.529385,38.049196],[-84.529423,38.049192],[-84.529467,38.049187],[-84.529656,38.049166],[-84.530392,38.049082],[-84.530795,38.049036],[-84.531723,38.048931],[-84.532177,38.048875],[-84.532443,38.04884],[-84.53277,38.048797],[-84.533211,38.048747],[-84.533661,38.048692],[-84.533751,38.048681],[-84.533973,38.048654],[-84.53426,38.048619],[-84.535177,38.048509],[-84.535422,38.048478],[-84.535566,38.04846],[-84.535816,38.04843],[-84.536214,38.048383],[-84.53659,38.048339],[-84.537809,38.048192],[-84.538101,38.048157],[-84.538516,38.048107],[-84.538784,38.048075],[-84.538809,38.048072],[-84.538872,38.048064],[-84.539094,38.048038],[-84.539278,38.048015],[-84.539399,38.048001],[-84.539709,38.047963],[-84.539978,38.04793],[-84.540298,38.047891],[-84.541,38.047805],[-84.541224,38.047778],[-84.541534,38.04774],[-84.541588,38.047733],[-84.54191,38.047694],[-84.542064,38.047676],[-84.542385,38.047641],[-84.542444,38.047592],[-84.542737,38.047553],[-84.543076,38.047508],[-84.543281,38.047481],[-84.543415,38.04751],[-84.54418,38.047432],[-84.544852,38.047363],[-84.545056,38.047347],[-84.546317,38.047243],[-84.547968,38.047109],[-84.548948,38.047041],[-84.549426,38.047008],[-84.550264,38.046941],[-84.550783,38.046899],[-84.550981,38.046883],[-84.55111,38.04687],[-84.551313,38.046844],[-84.551943,38.046796],[-84.552205,38.046774],[-84.552488,38.046751],[-84.552602,38.046741],[-84.552725,38.046731],[-84.552822,38.046723],[-84.553047,38.046704],[-84.553205,38.04669],[-84.553395,38.046674],[-84.553438,38.046671],[-84.553656,38.046653],[-84.553985,38.046625],[-84.55426,38.046602],[-84.554877,38.046559],[-84.555103,38.046543],[-84.555814,38.046494],[-84.555951,38.046484],[-84.55724,38.04638],[-84.558916,38.046247],[-84.55917,38.046228],[-84.55945,38.046208],[-84.559979,38.04617],[-84.560047,38.046165],[-84.560453,38.046073],[-84.560544,38.046062],[-84.561009,38.046009],[-84.56113,38.045995],[-84.562199,38.04591],[-84.562283,38.045905],[-84.563784,38.045785],[-84.564963,38.045692],[-84.565659,38.045628],[-84.565788,38.045618]]]}},{"type":"Feature","id":"hamburg","properties":{"id":"hamburg","label":"Hamburg","category":"retail"},"geometry":{"type":"Polygon","coordinates":[[[-84.45409,38.042905],[-84.453968,38.042899],[-84.453812,38.042892],[-84.452919,38.042844],[-84.452703,38.042832],[-84.452209,38.042828],[-84.451648,38.0428],[-84.451054,38.042755],[-84.450461,38.04271],[-84.450362,38.042698],[-84.449573,38.042603],[-84.449507,38.042595],[-84.449406,38.042583],[-84.449383,38.042578],[-84.448769,38.042495],[-84.448519,38.042459],[-84.446804,38.042225],[-84.446657,38.042162],[-84.444082,38.041823],[-84.443806,38.041792],[-84.443671,38.041766],[-84.443369,38.041726],[-84.442496,38.041613],[-84.44164,38.041508],[-84.441512,38.04149],[-84.439775,38.041262],[-84.439348,38.041212],[-84.438996,38.041179],[-84.438779,38.041169],[-84.438378,38.041167],[-84.438252,38.041166],[-84.438068,38.041173],[-84.437821,38.041191],[-84.437681,38.041204],[-84.437544,38.041216],[-84.436331,38.041353],[-84.435889,38.041403],[-84.434239,38.041594],[-84.433749,38.041651],[-84.43332,38.041699],[-84.432808,38.041757],[-84.432429,38.0418],[-84.432147,38.041822],[-84.431894,38.041834],[-84.431607,38.041839],[-84.431318,38.041832],[-84.430768,38.041799],[-84.42994,38.041736],[-84.428626,38.041637],[-84.428416,38.041616],[-84.427933,38.041573],[-84.427641,38.041549],[-84.427412,38.041484],[-84.427157,38.041464],[-84.426676,38.041433],[-84.426157,38.041393],[-84.425882,38.041378],[-84.425433,38.041333],[-84.425028,38.041293],[-84.424735,38.041269],[-84.424457,38.041328],[-84.423238,38.041235],[-84.422834,38.041221],[-84.422083,38.041175],[-84.421446,38.041127],[-84.42118,38.041011],[-84.419315,38.040868],[-84.418542,38.040801],[-84.417409,38.040715],[-84.416451,38.040642],[-84.41578,38.040595],[-84.415619,38.040582],[-84.415123,38.040544],[-84.414866,38.040524],[-84.414554,38.0405],[-84.413735,38.040442],[-84.412994,38.040369],[-84.412219,38.040272],[-84.411893,38.040196],[-84.411088,38.039974],[-84.4099,38.03964],[-84.409563,38.039546],[-84.408594,38.039267],[-84.407175,38.038855],[-84.405876,38.038489],[-84.404941,38.038224],[-84.40177,38.037344],[-84.398596,38.036477],[-84.397718,38.036245],[-84.396909,38.036058],[-84.396915,38.035896],[-84.396793,38.035569],[-84.396762,38.035491],[-84.396662,38.03524],[-84.396377,38.034557],[-84.396337,38.034426],[-84.396285,38.03426],[-84.396246,38.034101],[-84.396225,38.033901],[-84.39623,38.033548],[-84.396328,38.033113],[-84.3965,38.032686],[-84.396662,38.032426],[-84.396897,38.032146],[-84.397399,38.031733],[-84.398879,38.030635],[-84.400058,38.029728],[-84.400164,38.029653],[-84.401154,38.028891],[-84.402952,38.027555],[-84.404273,38.026547],[-84.404783,38.026171],[-84.405265,38.025843],[-84.406217,38.025161],[-84.406366,38.025065],[-84.406442,38.025022],[-84.407607,38.024368],[-84.407761,38.02422],[-84.407877,38.024147],[-84.409049,38.023496],[-84.409262,38.023379],[-84.409777,38.023097],[-84.410563,38.022659],[-84.410907,38.02247],[-84.411152,38.022335],[-84.411433,38.022183],[-84.411457,38.022171],[-84.411478,38.022159],[-84.412155,38.021783],[-84.412747,38.021458],[-84.412772,38.021444],[-84.413548,38.021009],[-84.413775,38.020883],[-84.41633,38.019465],[-84.416655,38.019285],[-84.416747,38.019237],[-84.41686,38.019174],[-84.417029,38.01907],[-84.417234,38.018955],[-84.4175,38.018778],[-84.417782,38.018573],[-84.417957,38.018425],[-84.418391,38.018033],[-84.418506,38.017922],[-84.418669,38.017751],[-84.418845,38.017549],[-84.418995,38.017367],[-84.41913,38.017191],[-84.41928,38.016983],[-84.419395,38.016802],[-84.4195,38.016614],[-84.419678,38.016269],[-84.419734,38.016153],[-84.419804,38.015989],[-84.419918,38.015687],[-84.419982,38.01548],[-84.420093,38.015059],[-84.420109,38.014945],[-84.420157,38.014613],[-84.420235,38.013841],[-84.420276,38.013437],[-84.420352,38.012503],[-84.420356,38.012433],[-84.420363,38.012313],[-84.420368,38.012262],[-84.42042,38.0117],[-84.420454,38.011449],[-84.420488,38.01125],[-84.420528,38.011083],[-84.4206,38.010826],[-84.420656,38.010665],[-84.420718,38.010524],[-84.420824,38.010306],[-84.420891,38.010185],[-84.421076,38.009904],[-84.421139,38.009824],[-84.421286,38.009637],[-84.421399,38.009507],[-84.421597,38.009314],[-84.421772,38.009154],[-84.421905,38.009035],[-84.42208,38.008911],[-84.422263,38.008784],[-84.422569,38.008597],[-84.422922,38.008417],[-84.4231,38.008347],[-84.423254,38.008288],[-84.423621,38.00815],[-84.423874,38.008078],[-84.424144,38.008014],[-84.424481,38.007948],[-84.42482,38.007898],[-84.426274,38.007731],[-84.426418,38.007715],[-84.426605,38.00769],[-84.428049,38.007518],[-84.428772,38.007432],[-84.42883,38.007425],[-84.431079,38.007156],[-84.431213,38.00714],[-84.431351,38.007123],[-84.43191,38.007056],[-84.432934,38.006934],[-84.435764,38.006596],[-84.435899,38.006579],[-84.436037,38.006561],[-84.436191,38.006542],[-84.436872,38.006457],[-84.437087,38.006423],[-84.437429,38.006351],[-84.437593,38.006308],[-84.43763,38.006299],[-84.437752,38.006262],[-84.438053,38.006152],[-84.438323,38.006045],[-84.438528,38.005952],[-84.438745,38.005841],[-84.439147,38.005603],[-84.440444,38.004714],[-84.440735,38.004511],[-84.441365,38.004064],[-84.441751,38.003776],[-84.443094,38.00274],[-84.443376,38.002533],[-84.444096,38.002025],[-84.444579,38.001706],[-84.445543,38.00112],[-84.445662,38.001048],[-84.445818,38.000946],[-84.44594,38.001062],[-84.44595,38.001071],[-84.445961,38.001082],[-84.44602,38.001138],[-84.44713,38.002213],[-84.44724,38.00232],[-84.447923,38.00298],[-84.448005,38.00306],[-84.448096,38.003148],[-84.449683,38.00467],[-84.449896,38.004843],[-84.450325,38.005291],[-84.450489,38.005452],[-84.450537,38.005498],[-84.450618,38.005576],[-84.450701,38.005654],[-84.450711,38.005663],[-84.450752,38.005702],[-84.451217,38.006149],[-84.451597,38.006514],[-84.451761,38.006671],[-84.451869,38.006769],[-84.452189,38.007062],[-84.452639,38.007465],[-84.453154,38.007916],[-84.454212,38.008844],[-84.454587,38.009173],[-84.455379,38.009862],[-84.456238,38.010617],[-84.457157,38.011416],[-84.457418,38.01165],[-84.457778,38.011964],[-84.458976,38.01301],[-84.458989,38.013021],[-84.459658,38.013609],[-84.459766,38.013706],[-84.459978,38.013896],[-84.459983,38.013901],[-84.460167,38.014082],[-84.460244,38.014158],[-84.460256,38.014169],[-84.460454,38.014344],[-84.460357,38.014418],[-84.459256,38.013457],[-84.459113,38.013396],[-84.459072,38.013388],[-84.459025,38.013384],[-84.45897,38.013394],[-84.45892,38.01341],[-84.458877,38.013432],[-84.458834,38.013465],[-84.458781,38.013518],[-84.458563,38.013821],[-84.458309,38.014264],[-84.458235,38.014396],[-84.457994,38.014827],[-84.457475,38.01574],[-84.457387,38.015905],[-84.457302,38.016048],[-84.457168,38.016315],[-84.457056,38.016537],[-84.45662,38.017681],[-84.456586,38.017786],[-84.456547,38.017879],[-84.456256,38.018667],[-84.456133,38.019],[-84.45587,38.019711],[-84.45578,38.019955],[-84.455638,38.02034],[-84.455516,38.02067],[-84.45537,38.021068],[-84.454807,38.022594],[-84.454766,38.022704],[-84.454727,38.02281],[-84.454606,38.023137],[-84.45437,38.023774],[-84.454328,38.023889],[-84.454063,38.024589],[-84.453778,38.025348],[-84.453077,38.027271],[-84.452977,38.027546],[-84.452833,38.02803],[-84.452809,38.028102],[-84.452741,38.028366],[-84.452694,38.028591],[-84.452624,38.02924],[-84.452611,38.029365],[-84.452605,38.029418],[-84.452594,38.029682],[-84.452599,38.029873],[-84.452601,38.029898],[-84.452624,38.03024],[-84.452661,38.030588],[-84.45252,38.030602],[-84.452536,38.030699],[-84.452575,38.030923],[-84.452578,38.030943],[-84.452603,38.031058],[-84.452654,38.031255],[-84.45278,38.03168],[-84.452841,38.031884],[-84.452875,38.031999],[-84.452909,38.032113],[-84.452975,38.032317],[-84.453011,38.03243],[-84.453054,38.032571],[-84.453194,38.033033],[-84.45322,38.033119],[-84.453273,38.033296],[-84.453345,38.03353],[-84.453421,38.033775],[-84.453433,38.033812],[-84.453463,38.03391],[-84.453553,38.0342],[-84.453682,38.034617],[-84.453695,38.034663],[-84.453738,38.034805],[-84.453774,38.034907],[-84.453892,38.035306],[-84.453935,38.035451],[-84.453947,38.035494],[-84.453991,38.035656],[-84.454014,38.035739],[-84.454023,38.035774],[-84.454066,38.035962],[-84.454078,38.036013],[-84.45411,38.036202],[-84.454123,38.036272],[-84.454138,38.036351],[-84.454145,38.036399],[-84.454213,38.036842],[-84.454258,38.037138],[-84.454299,38.037534],[-84.454308,38.037624],[-84.454325,38.037789],[-84.454348,38.038126],[-84.454361,38.038468],[-84.454361,38.038566],[-84.454361,38.038657],[-84.454351,38.03895],[-84.45434,38.039135],[-84.454295,38.039874],[-84.45409,38.042905]]]}}]}